{"type":"FeatureCollection","features":[{"type":"Feature","properties":{"district":"Anantnag","region":"Kashmir Valley","admin_unit":"Jammu and Kashmir (state)","period":"jk_1979_2006"},"geometry":{"type":"Polygon","coordinates":[[[75.631,34.2227],[75.6374,34.2211],[75.6863,34.2317],[75.7088,34.2284],[75.7069,34.2114],[75.6824,34.2113],[75.6702,34.2044],[75.6644,34.1756],[75.6441,34.1635],[75.6118,34.1328],[75.6079,34.1141],[75.6125,34.065],[75.6107,34.0429],[75.5946,34.0275],[75.5702,34.0239],[75.5338,33.9948],[75.5057,33.9658],[75.4718,33.9045],[75.481,33.8164],[75.5019,33.7724],[75.5124,33.7386],[75.5458,33.6592],[75.5481,33.6338],[75.5754,33.5458],[75.5737,33.5187],[75.5439,33.4744],[75.534,33.4471],[75.4724,33.3635],[75.4563,33.3515],[75.426,33.3547],[75.3874,33.3713],[75.3487,33.3929],[75.3303,33.4114],[75.3119,33.4231],[75.238,33.4953],[75.205,33.5339],[75.1925,33.5609],[75.1781,33.5709],[75.1456,33.5807],[75.1334,33.5789],[75.1236,33.5618],[75.1198,33.5431],[75.1328,33.4958],[75.1231,33.4703],[75.101,33.4581],[75.0728,33.4527],[75.018,33.4639],[75.0098,33.4612],[74.9977,33.4671],[74.9208,33.4661],[74.84,33.4582],[74.8013,33.4712],[74.7742,33.5115],[74.7537,33.5248],[74.7314,33.5262],[74.7072,33.5207],[74.7016,33.5003],[74.6897,33.4865],[74.6192,33.4702],[74.6012,33.4525],[74.5972,33.4614],[74.5545,33.4769],[74.5582,33.4845],[74.5393,33.513],[74.5239,33.567],[74.5269,33.6095],[74.5176,33.6602],[74.5144,33.6628],[74.5196,33.6636],[74.5554,33.6922],[74.6045,33.6735],[74.6696,33.666],[74.7,33.6665],[74.7829,33.6795],[74.8135,33.6715],[74.8341,33.6548],[74.8505,33.6466],[74.8892,33.6369],[74.9095,33.6355],[74.9783,33.6432],[74.9983,33.6587],[75.0775,33.7699],[75.1312,33.8383],[75.1613,33.8675],[75.1935,33.8831],[75.2338,33.9107],[75.2617,33.9466],[75.2652,33.9907],[75.2445,34.0074],[75.22,34.0174],[75.2075,34.0308],[75.1766,34.0542],[75.1489,34.0842],[75.1696,34.1135],[75.1712,34.1372],[75.1629,34.149],[75.1626,34.1677],[75.1725,34.1864],[75.1825,34.195],[75.2092,34.1834],[75.2564,34.1704],[75.2684,34.184],[75.2803,34.2062],[75.3086,34.2251],[75.323,34.2202],[75.3498,34.1984],[75.3868,34.1852],[75.4379,34.1772],[75.4563,34.1688],[75.5539,34.2002],[75.6191,34.2159],[75.631,34.2227]]]}},{"type":"Feature","properties":{"district":"Baramulla","region":"Kashmir Valley","admin_unit":"Jammu and Kashmir (state)","period":"jk_1979_2006"},"geometry":{"type":"Polygon","coordinates":[[[75.3924,34.5434],[75.3985,34.5312],[75.3928,34.4956],[75.3999,34.4227],[75.4063,34.4058],[75.4272,34.3721],[75.4336,34.3501],[75.3702,34.3546],[75.3582,34.352],[75.2698,34.3672],[75.2005,34.3546],[75.1513,34.3608],[75.0854,34.3872],[75.0606,34.4022],[75.0439,34.4223],[75.0231,34.4391],[74.9963,34.4523],[74.9532,34.4551],[74.9191,34.4174],[74.8935,34.3696],[74.8775,34.3507],[74.8388,34.34],[74.8,34.3378],[74.7673,34.3373],[74.7221,34.3468],[74.6894,34.3463],[74.6657,34.3087],[74.6746,34.2766],[74.6873,34.2547],[74.6962,34.2226],[74.7013,34.1735],[74.7202,34.1484],[74.7678,34.1185],[74.7906,34.1002],[74.8135,34.0768],[74.8241,34.0532],[74.8232,34.049],[74.7872,34.0679],[74.71,34.0567],[74.635,34.0352],[74.5584,34.0017],[74.5363,33.9912],[74.4923,33.9566],[74.4827,33.931],[74.4611,33.9018],[74.4393,33.8777],[74.4134,33.8569],[74.3881,33.892],[74.3672,33.912],[74.3445,33.9269],[74.3201,33.9556],[74.3275,33.9537],[74.3311,33.9724],[74.3263,33.9995],[74.3217,34.0214],[74.2938,34.0752],[74.2913,34.0921],[74.293,34.1057],[74.3008,34.1194],[74.3286,34.1454],[74.3325,34.1539],[74.3275,34.1895],[74.3149,34.2028],[74.251,34.2271],[74.2162,34.2298],[74.1751,34.2375],[74.1401,34.2487],[74.062,34.2641],[74.0394,34.2704],[74.02,34.2853],[74.2033,34.3262],[74.246,34.3338],[74.2889,34.3363],[74.3581,34.3511],[74.3702,34.3564],[74.3781,34.3667],[74.3877,34.3906],[74.3932,34.4162],[74.4169,34.4505],[74.4779,34.4668],[74.5043,34.4791],[74.5099,34.5013],[74.5216,34.5269],[74.5497,34.5494],[74.5534,34.5681],[74.551,34.5816],[74.5359,34.6153],[74.531,34.6458],[74.5488,34.6766],[74.5669,34.6921],[74.5788,34.711],[74.5785,34.7228],[74.5879,34.7603],[74.5684,34.8041],[74.5819,34.845],[74.6035,34.8691],[74.6819,34.7702],[74.7883,34.6885],[74.9353,34.5856],[74.9878,34.5286],[75.0252,34.5102],[75.0835,34.5],[75.1384,34.4991],[75.2207,34.5037],[75.3046,34.515],[75.3924,34.5434]]]}},{"type":"Feature","properties":{"district":"Budgam","region":"Kashmir Valley","admin_unit":"Jammu and Kashmir (state)","period":"jk_1979_2006"},"geometry":{"type":"Polygon","coordinates":[[[74.7872,34.0679],[74.8283,34.0465],[74.8508,34.0468],[74.8771,34.0522],[74.8915,34.049],[74.9122,34.0307],[74.9206,34.0172],[74.927,34.0003],[74.9299,33.9529],[74.9204,33.9171],[74.9026,33.8949],[74.8846,33.8743],[74.8586,33.8536],[74.8447,33.8364],[74.8046,33.8087],[74.7481,33.7944],[74.7219,33.7804],[74.6073,33.7312],[74.5196,33.6636],[74.5144,33.6628],[74.5011,33.6735],[74.4651,33.7373],[74.436,33.7623],[74.4196,33.7688],[74.3938,33.826],[74.3994,33.8464],[74.4393,33.8777],[74.4611,33.9018],[74.4827,33.931],[74.4923,33.9566],[74.5363,33.9912],[74.635,34.0352],[74.6816,34.0494],[74.71,34.0567],[74.7872,34.0679]]]}},{"type":"Feature","properties":{"district":"Doda","region":"Jammu","admin_unit":"Jammu and Kashmir (state)","period":"jk_1979_2006"},"geometry":{"type":"Polygon","coordinates":[[[75.7074,34.2158],[75.7417,34.1981],[75.7687,34.1406],[75.7935,34.1035],[75.8099,34.0917],[75.8406,34.0834],[75.8631,34.0699],[75.9001,34.0226],[75.9431,33.9872],[76.0021,33.996],[76.0163,34.0011],[76.0428,33.9961],[76.0571,33.986],[76.0817,33.9539],[76.09,33.9234],[76.1105,33.8946],[76.19,33.8203],[76.2105,33.7864],[76.2187,33.7423],[76.2209,33.6949],[76.2373,33.6305],[76.2496,33.6085],[76.28,33.6085],[76.3124,33.6221],[76.3224,33.6476],[76.3427,33.6629],[76.367,33.6731],[76.3974,33.668],[76.4258,33.6494],[76.4705,33.6087],[76.4847,33.585],[76.5818,33.5154],[76.5879,33.4951],[76.598,33.4764],[76.6647,33.4289],[76.6666,33.4136],[76.6727,33.4136],[76.6807,33.3865],[76.6746,33.3492],[76.6867,33.339],[76.7533,33.3219],[76.7755,33.3049],[76.7875,33.2828],[76.796,33.2549],[76.7816,33.2535],[76.7734,33.2487],[76.7804,33.2387],[76.7779,33.2238],[76.7601,33.1966],[76.7523,33.1923],[76.7478,33.1786],[76.7321,33.1766],[76.7263,33.1805],[76.7146,33.1807],[76.7031,33.1732],[76.6689,33.1711],[76.6585,33.164],[76.6448,33.1618],[76.6304,33.1653],[76.6174,33.1731],[76.6151,33.1874],[76.6018,33.1925],[76.604,33.2037],[76.5997,33.2063],[76.5808,33.2057],[76.5653,33.209],[76.552,33.1989],[76.538,33.2],[76.5137,33.1956],[76.4868,33.1795],[76.4733,33.183],[76.4595,33.1801],[76.4395,33.1815],[76.4254,33.1881],[76.4094,33.1864],[76.3838,33.1678],[76.3734,33.1544],[76.3532,33.1461],[76.3331,33.13],[76.3094,33.12],[76.3055,33.113],[76.2924,33.1038],[76.2943,33.1005],[76.2887,33.0962],[76.2726,33.0521],[76.2546,33.0324],[76.1694,33.0229],[76.1454,33.0101],[76.1108,33.0049],[76.1117,33.0004],[76.0992,32.9688],[76.0714,32.951],[76.0674,32.9443],[76.045,32.9375],[76.0341,32.9177],[76.0215,32.9141],[76.0042,32.9007],[75.9625,32.8853],[75.9506,32.8845],[75.94,32.8983],[75.9169,32.916],[75.8839,32.9306],[75.8507,32.9351],[75.8247,32.9303],[75.815,32.9199],[75.8185,32.9108],[75.8167,32.9044],[75.8041,32.8938],[75.8113,32.8706],[75.8245,32.8538],[75.7918,32.8623],[75.7516,32.8655],[75.7273,32.8908],[75.6665,32.9344],[75.6221,32.9545],[75.5878,32.9661],[75.5233,32.9808],[75.4728,32.999],[75.4422,33.031],[75.4199,33.0443],[75.3835,33.0576],[75.3489,33.081],[75.3166,33.0874],[75.2639,33.1073],[75.2152,33.1305],[75.1404,33.1449],[75.0695,33.1661],[75.0287,33.1978],[75.0182,33.2214],[75.0178,33.2418],[75.0194,33.2639],[75.0292,33.2809],[75.0287,33.3097],[75.0376,33.3811],[75.0372,33.4065],[75.0181,33.4571],[75.0098,33.4612],[75.018,33.4639],[75.0728,33.4527],[75.101,33.4581],[75.1231,33.4703],[75.1328,33.4958],[75.1198,33.5431],[75.1236,33.5618],[75.1334,33.5789],[75.1456,33.5807],[75.1781,33.5709],[75.1925,33.5609],[75.205,33.5339],[75.238,33.4953],[75.3119,33.4231],[75.3303,33.4114],[75.3487,33.3929],[75.3874,33.3713],[75.426,33.3547],[75.4563,33.3515],[75.4724,33.3635],[75.534,33.4471],[75.5439,33.4744],[75.5737,33.5187],[75.5754,33.5458],[75.5481,33.6338],[75.5458,33.6592],[75.5124,33.7386],[75.5019,33.7724],[75.481,33.8164],[75.4718,33.9045],[75.5057,33.9658],[75.5338,33.9948],[75.5702,34.0239],[75.5946,34.0275],[75.6107,34.0429],[75.6125,34.065],[75.6079,34.1141],[75.6118,34.1328],[75.6441,34.1635],[75.6644,34.1756],[75.6702,34.2044],[75.6824,34.2113],[75.7069,34.2114],[75.7074,34.2158]]]}},{"type":"Feature","properties":{"district":"Jammu","region":"Jammu","admin_unit":"Jammu and Kashmir (state)","period":"jk_1979_2006"},"geometry":{"type":"Polygon","coordinates":[[[74.8457,32.9632],[74.8124,32.9186],[74.8169,32.8966],[74.8353,32.8799],[74.9038,32.869],[74.9518,32.8781],[74.9679,32.8783],[74.9764,32.8513],[74.9966,32.8465],[75.0502,32.8844],[75.0746,32.8678],[75.1135,32.8225],[75.148,32.7991],[75.1646,32.762],[75.1769,32.7486],[75.1995,32.7116],[75.2199,32.6914],[75.2503,32.6663],[75.2927,32.643],[75.3289,32.6332],[75.373,32.6303],[75.3712,32.6167],[75.3099,32.5618],[75.2801,32.5446],[75.2202,32.5389],[75.1983,32.5319],[75.113,32.4834],[75.0898,32.4643],[75.0736,32.4736],[75.0548,32.4759],[75.0306,32.4929],[75.0208,32.4824],[75.0177,32.4657],[75.0046,32.4523],[74.9915,32.4474],[74.9626,32.4495],[74.9542,32.4408],[74.9504,32.4405],[74.9361,32.4626],[74.9169,32.459],[74.9111,32.4655],[74.9068,32.4659],[74.9029,32.4608],[74.8956,32.4614],[74.8783,32.4721],[74.8789,32.4812],[74.8765,32.4825],[74.8473,32.4819],[74.8174,32.4888],[74.8123,32.4767],[74.801,32.4759],[74.7937,32.4689],[74.7684,32.4747],[74.759,32.4744],[74.7519,32.4697],[74.7352,32.4743],[74.716,32.4706],[74.7106,32.4732],[74.7087,32.4816],[74.7044,32.4854],[74.6852,32.482],[74.681,32.4865],[74.6828,32.4951],[74.6796,32.5066],[74.6876,32.5175],[74.6885,32.525],[74.6631,32.536],[74.6603,32.5413],[74.6703,32.5502],[74.6682,32.5595],[74.6521,32.5593],[74.6473,32.578],[74.6495,32.591],[74.6398,32.5943],[74.6348,32.6026],[74.637,32.6106],[74.6461,32.6101],[74.6493,32.6128],[74.6522,32.6297],[74.6637,32.6303],[74.6699,32.6411],[74.6832,32.6449],[74.6927,32.6548],[74.679,32.668],[74.6622,32.6728],[74.6504,32.6983],[74.6586,32.7177],[74.6589,32.7268],[74.671,32.7474],[74.6821,32.7819],[74.7,32.8105],[74.7028,32.8328],[74.7014,32.8351],[74.689,32.8331],[74.6643,32.8216],[74.6532,32.8274],[74.636,32.8135],[74.6328,32.7998],[74.6411,32.7913],[74.6503,32.7874],[74.6539,32.7813],[74.65,32.7769],[74.6363,32.7781],[74.6315,32.7743],[74.6293,32.7659],[74.6353,32.7508],[74.6321,32.7473],[74.6131,32.7555],[74.606,32.7513],[74.5941,32.7522],[74.5878,32.746],[74.5756,32.745],[74.5718,32.7465],[74.5688,32.7544],[74.557,32.7571],[74.5439,32.7433],[74.535,32.7445],[74.5267,32.7404],[74.5146,32.7435],[74.5094,32.7387],[74.508,32.7509],[74.5013,32.7604],[74.483,32.7622],[74.4724,32.7723],[74.461,32.7732],[74.4575,32.7828],[74.4512,32.7836],[74.4695,32.7997],[74.5216,32.8887],[74.4965,32.929],[74.4941,32.9459],[74.5119,32.9615],[74.5416,32.9806],[74.5654,32.9929],[74.5896,32.9932],[74.5913,32.9962],[74.6119,32.9851],[74.6283,32.9718],[74.6688,32.9572],[74.6927,32.9711],[74.714,33.007],[74.7298,33.0242],[74.7517,33.033],[74.782,33.0318],[74.8085,33.0118],[74.825,32.9917],[74.8393,32.98],[74.8457,32.9632]]]}},{"type":"Feature","properties":{"district":"Kargil","region":"Ladakh","admin_unit":"Jammu and Kashmir (state)","period":"jk_1979_2006"},"geometry":{"type":"Polygon","coordinates":[[[76.6503,34.4259],[76.6806,34.2885],[76.6949,34.2648],[76.7112,34.2461],[76.6723,34.1885],[76.6579,34.158],[76.6333,34.0936],[76.6292,34.058],[76.6353,34.0207],[76.6535,33.9901],[76.7124,33.9222],[76.7976,33.8678],[76.8687,33.8438],[76.9174,33.8233],[76.978,33.7756],[77.0084,33.767],[77.0936,33.7582],[77.1546,33.7612],[77.2235,33.7456],[77.2719,33.7131],[77.3058,33.6535],[77.3279,33.6279],[77.4331,33.6119],[77.4615,33.6133],[77.4898,33.6097],[77.518,33.5976],[77.53,33.5806],[77.5252,33.5246],[77.4985,33.4876],[77.4636,33.4489],[77.4391,33.4287],[77.3638,33.3818],[77.3454,33.3616],[77.337,33.321],[77.3346,33.2854],[77.3444,33.2565],[77.3441,33.2277],[77.3358,33.2057],[77.2951,33.1636],[77.2665,33.1264],[77.2618,33.0519],[77.2716,33.0213],[77.2629,32.9485],[77.2587,32.9248],[77.2383,32.8949],[77.2222,32.9044],[77.2066,32.9081],[77.1994,32.9135],[77.1915,32.9292],[77.1814,32.9232],[77.1751,32.9113],[77.1638,32.9121],[77.1684,32.9183],[77.1646,32.9325],[77.1664,32.9395],[77.1638,32.9409],[77.1638,32.9546],[77.1541,32.956],[77.153,32.9591],[77.1541,32.9787],[77.1209,32.9855],[77.1148,32.9759],[77.0926,32.9716],[77.0836,32.9839],[77.0762,32.9844],[77.053,32.9981],[77.0421,32.9954],[77.0376,32.9902],[77.0289,32.9917],[77.0161,32.988],[76.9842,33.0057],[76.9798,33.0125],[76.9352,33.0323],[76.9142,33.0745],[76.9085,33.0795],[76.9121,33.0939],[76.9026,33.0962],[76.8953,33.106],[76.8951,33.113],[76.8866,33.1191],[76.8704,33.1104],[76.8623,33.1112],[76.8519,33.1194],[76.8552,33.1253],[76.8459,33.1306],[76.8471,33.1366],[76.8351,33.1409],[76.8213,33.1547],[76.816,33.1723],[76.8245,33.1838],[76.8213,33.1929],[76.8366,33.2046],[76.8352,33.2113],[76.8291,33.2145],[76.8359,33.2302],[76.8469,33.2416],[76.8464,33.2455],[76.832,33.2465],[76.8272,33.2434],[76.8244,33.2353],[76.8208,33.2358],[76.8035,33.2528],[76.796,33.2549],[76.7875,33.2828],[76.7755,33.3049],[76.7533,33.3219],[76.6867,33.339],[76.6746,33.3492],[76.6807,33.3865],[76.6727,33.4136],[76.6666,33.4136],[76.6647,33.4289],[76.598,33.4764],[76.5879,33.4951],[76.5818,33.5154],[76.4847,33.585],[76.4705,33.6087],[76.4258,33.6494],[76.3974,33.668],[76.367,33.6731],[76.3427,33.6629],[76.3224,33.6476],[76.3124,33.6221],[76.28,33.6085],[76.2496,33.6085],[76.2373,33.6305],[76.2209,33.6949],[76.2187,33.7423],[76.2105,33.7864],[76.19,33.8203],[76.1105,33.8946],[76.09,33.9234],[76.0817,33.9539],[76.0571,33.986],[76.0428,33.9961],[76.0163,34.0011],[76.0021,33.996],[75.9431,33.9872],[75.9001,34.0226],[75.8631,34.0699],[75.8406,34.0834],[75.8099,34.0917],[75.7935,34.1035],[75.7687,34.1406],[75.7417,34.1981],[75.7074,34.2158],[75.7088,34.2284],[75.6863,34.2317],[75.6374,34.2211],[75.631,34.2227],[75.625,34.2346],[75.5287,34.2661],[75.4073,34.3329],[75.3582,34.352],[75.3702,34.3546],[75.4336,34.3501],[75.4272,34.3721],[75.4063,34.4058],[75.3999,34.4227],[75.3928,34.4956],[75.3985,34.5312],[75.3924,34.5434],[75.7051,34.6116],[75.8156,34.6428],[75.8853,34.65],[75.9119,34.6586],[75.9898,34.6725],[76.0473,34.6744],[76.078,34.683],[76.121,34.7086],[76.1353,34.7273],[76.1947,34.7664],[76.2377,34.8072],[76.2521,34.831],[76.2767,34.8497],[76.3075,34.8616],[76.3425,34.8583],[76.4125,34.8007],[76.4248,34.777],[76.4372,34.7634],[76.4557,34.7329],[76.466,34.7041],[76.4824,34.682],[76.5111,34.6719],[76.5686,34.643],[76.587,34.6261],[76.5993,34.6074],[76.6095,34.5803],[76.6156,34.5311],[76.6503,34.4259]]]}},{"type":"Feature","properties":{"district":"Kathua","region":"Jammu","admin_unit":"Jammu and Kashmir (state)","period":"jk_1979_2006"},"geometry":{"type":"Polygon","coordinates":[[[75.929,32.7571],[75.9305,32.742],[75.9263,32.7209],[75.9129,32.691],[75.9152,32.6806],[75.9217,32.6722],[75.9404,32.6581],[75.9399,32.6435],[75.9024,32.5918],[75.8538,32.5375],[75.841,32.5091],[75.8202,32.4869],[75.806,32.4787],[75.7947,32.4749],[75.7617,32.4763],[75.7272,32.4181],[75.7006,32.4006],[75.6636,32.3889],[75.6082,32.3819],[75.5606,32.3611],[75.5446,32.3491],[75.5396,32.3403],[75.5311,32.2982],[75.5165,32.2763],[75.5099,32.2771],[75.5053,32.2882],[75.5055,32.3105],[75.4952,32.3106],[75.483,32.3179],[75.4876,32.3404],[75.4671,32.3322],[75.4302,32.3247],[75.3938,32.3294],[75.347,32.3454],[75.3247,32.3413],[75.3159,32.3345],[75.3046,32.3382],[75.3005,32.3461],[75.2891,32.3517],[75.2917,32.3592],[75.287,32.3662],[75.2589,32.3648],[75.255,32.385],[75.2397,32.3798],[75.2323,32.3865],[75.2237,32.3869],[75.2166,32.3952],[75.2055,32.3906],[75.1966,32.393],[75.1919,32.3986],[75.1929,32.4029],[75.1991,32.4057],[75.2014,32.411],[75.1992,32.4153],[75.1897,32.4199],[75.1672,32.419],[75.1627,32.4146],[75.1515,32.4129],[75.1324,32.4027],[75.1292,32.4209],[75.137,32.425],[75.1233,32.4353],[75.1195,32.4514],[75.1116,32.4566],[75.11,32.4702],[75.103,32.4737],[75.113,32.4834],[75.1983,32.5319],[75.2202,32.5389],[75.2801,32.5446],[75.3099,32.5618],[75.3712,32.6167],[75.3718,32.6304],[75.3988,32.6559],[75.4206,32.668],[75.4547,32.6717],[75.4705,32.6888],[75.4762,32.716],[75.4879,32.7398],[75.516,32.7434],[75.5902,32.7389],[75.6543,32.7546],[75.6702,32.77],[75.682,32.7955],[75.6979,32.8109],[75.7799,32.8419],[75.802,32.8455],[75.8247,32.8538],[75.8376,32.8431],[75.854,32.8371],[75.8904,32.8139],[75.9166,32.7699],[75.929,32.7571]]]}},{"type":"Feature","properties":{"district":"Kupwara","region":"Kashmir Valley","admin_unit":"Jammu and Kashmir (state)","period":"jk_1979_2006"},"geometry":{"type":"Polygon","coordinates":[[[74.6035,34.8691],[74.5819,34.845],[74.5684,34.8041],[74.5879,34.7603],[74.5785,34.7228],[74.5788,34.711],[74.5669,34.6921],[74.5488,34.6766],[74.531,34.6458],[74.5359,34.6153],[74.551,34.5816],[74.5534,34.5681],[74.5497,34.5494],[74.5216,34.5269],[74.5099,34.5013],[74.5043,34.4791],[74.4779,34.4668],[74.4169,34.4505],[74.3932,34.4162],[74.3877,34.3906],[74.3781,34.3667],[74.3702,34.3564],[74.3581,34.3511],[74.2889,34.3363],[74.246,34.3338],[74.2033,34.3262],[74.0246,34.2854],[74.0083,34.2851],[73.9937,34.2949],[73.9699,34.3385],[73.9456,34.3974],[73.9157,34.4358],[73.9089,34.4577],[73.9097,34.4984],[73.9193,34.5173],[73.9352,34.5346],[73.9775,34.5609],[74.0526,34.5862],[74.1014,34.599],[74.175,34.6089],[74.2034,34.6197],[74.252,34.6443],[74.2779,34.6719],[74.3409,34.6968],[74.359,34.7124],[74.3666,34.7346],[74.3682,34.7549],[74.4085,34.7862],[74.4673,34.8177],[74.4938,34.8266],[74.5752,34.8652],[74.6035,34.8691]]]}},{"type":"Feature","properties":{"district":"Leh","region":"Ladakh","admin_unit":"Jammu and Kashmir (state)","period":"jk_1979_2006"},"geometry":{"type":"Polygon","coordinates":[[[79.3847,35.9943],[79.4031,35.9188],[79.4221,35.8965],[79.5184,35.8835],[79.5599,35.8618],[79.6655,35.8353],[79.712,35.8195],[79.725,35.806],[79.7375,35.802],[79.7964,35.7972],[79.8711,35.783],[79.9102,35.8172],[79.93,35.8274],[79.9559,35.8378],[79.9722,35.8407],[79.9992,35.8378],[80.0176,35.824],[80.0382,35.7998],[80.0582,35.7499],[80.0882,35.7252],[80.1081,35.6809],[80.2373,35.6419],[80.2743,35.6228],[80.2915,35.6074],[80.3113,35.5542],[80.3286,35.4726],[80.3235,35.4653],[80.2976,35.4608],[80.2811,35.4409],[80.2835,35.3879],[80.2709,35.3442],[80.2357,35.2766],[80.226,35.22],[80.1835,35.1667],[80.1779,35.1369],[80.1859,35.0632],[80.1839,35.0405],[80.1748,35.0023],[80.1709,34.9889],[80.1237,34.8934],[80.1068,34.868],[80.084,34.8488],[80.0731,34.8284],[80.067,34.7906],[80.0728,34.7461],[80.069,34.7148],[80.0445,34.7044],[79.9446,34.6811],[79.9331,34.6824],[79.9278,34.6872],[79.9003,34.6913],[79.8607,34.6888],[79.8248,34.6611],[79.8204,34.647],[79.8165,34.6434],[79.8043,34.643],[79.7759,34.6276],[79.7726,34.6205],[79.7788,34.6152],[79.793,34.5896],[79.771,34.5821],[79.759,34.566],[79.7585,34.5547],[79.7619,34.552],[79.775,34.552],[79.7825,34.5444],[79.8103,34.5313],[79.8152,34.5202],[79.8145,34.5001],[79.8124,34.4969],[79.8044,34.4959],[79.794,34.4851],[79.7675,34.4801],[79.7435,34.4813],[79.7334,34.4783],[79.6846,34.4787],[79.673,34.4836],[79.662,34.4797],[79.6524,34.4884],[79.6089,34.492],[79.5933,34.5008],[79.5802,34.4899],[79.5709,34.4867],[79.5435,34.479],[79.5085,34.4743],[79.5095,34.4679],[79.5273,34.4455],[79.5281,34.418],[79.5419,34.4101],[79.5612,34.41],[79.5607,34.3994],[79.554,34.388],[79.5622,34.3635],[79.5596,34.3324],[79.5922,34.2817],[79.5857,34.2444],[79.5792,34.2292],[79.5648,34.2178],[79.549,34.2145],[79.5464,34.2086],[79.5401,34.2055],[79.5256,34.2123],[79.5111,34.2105],[79.4948,34.18],[79.4897,34.1572],[79.4893,34.1488],[79.4947,34.1359],[79.4612,34.102],[79.4326,34.0927],[79.4203,34.0781],[79.4142,34.0558],[79.435,34.037],[79.4379,34.0286],[79.4337,34.023],[79.4205,34.0146],[79.4143,34.0149],[79.3988,34.0271],[79.3555,34.0369],[79.306,34.043],[79.2744,34.0394],[79.2637,34.047],[79.2477,34.0513],[79.1981,34.0512],[79.1788,34.0721],[79.1712,34.0729],[79.1649,34.0666],[79.1516,34.0681],[79.1438,34.0352],[79.1358,34.0272],[79.1126,34.0197],[79.0841,34.0219],[79.062,34.0287],[79.0444,34.0357],[79.0224,34.0509],[78.952,34.0289],[78.9406,34.024],[78.9234,33.9937],[78.9057,33.9762],[78.9067,33.9689],[78.9212,33.9573],[78.937,33.9272],[78.9483,33.9207],[78.9494,33.9166],[78.9438,33.9086],[78.9527,33.9024],[78.9535,33.8892],[78.9617,33.871],[79.0008,33.8033],[79.0065,33.7976],[79.0192,33.7988],[79.0125,33.7869],[79.0168,33.7787],[79.0245,33.7752],[79.0341,33.7837],[79.0408,33.7707],[79.0473,33.7661],[79.0508,33.7676],[79.0538,33.7784],[79.0603,33.7803],[79.0613,33.7698],[79.0676,33.7633],[79.0685,33.7564],[79.043,33.7497],[79.0431,33.7385],[79.0262,33.7227],[79.0205,33.7057],[79.029,33.6918],[79.0381,33.6844],[79.054,33.6781],[79.0718,33.6791],[79.0863,33.6884],[79.0912,33.687],[79.0905,33.6571],[79.1071,33.6169],[79.1066,33.6141],[79.0995,33.6137],[79.0654,33.6268],[79.0478,33.6277],[79.0201,33.6235],[78.9997,33.6122],[78.9899,33.6112],[78.9498,33.6207],[78.9224,33.6332],[78.9167,33.6323],[78.9145,33.6279],[78.9171,33.6224],[78.9182,33.5871],[78.9152,33.5743],[78.9278,33.5598],[78.9406,33.5266],[78.9428,33.5093],[78.9418,33.4996],[78.9315,33.4739],[78.9333,33.4328],[78.9403,33.4123],[78.95,33.4084],[78.9537,33.3811],[78.9687,33.3755],[78.9726,33.3605],[78.9803,33.3559],[78.99,33.3329],[78.9964,33.3305],[79.0178,33.3355],[79.0619,33.3098],[79.0973,33.2946],[79.1269,33.2899],[79.1442,33.2927],[79.1663,33.2901],[79.1769,33.2945],[79.2086,33.2924],[79.2406,33.2978],[79.3157,33.2732],[79.333,33.2734],[79.3701,33.2827],[79.4475,33.2648],[79.4534,33.2604],[79.4561,33.2504],[79.4467,33.2058],[79.4305,33.1767],[79.3934,33.1244],[79.3774,33.0847],[79.3781,33.0791],[79.3935,33.0541],[79.3938,33.0362],[79.3823,33.0277],[79.341,33.0185],[79.332,33.0121],[79.3552,33.0029],[79.3682,32.9909],[79.3841,32.9891],[79.3856,32.968],[79.4093,32.9701],[79.4223,32.9615],[79.464,32.9201],[79.4889,32.8813],[79.5161,32.8557],[79.568,32.7868],[79.5733,32.7824],[79.5823,32.7811],[79.5873,32.774],[79.6032,32.777],[79.6146,32.7643],[79.6269,32.7375],[79.5784,32.6787],[79.5671,32.6733],[79.5157,32.6081],[79.494,32.5903],[79.4698,32.5763],[79.4617,32.553],[79.4481,32.5325],[79.4242,32.5272],[79.4068,32.5297],[79.3994,32.5371],[79.3945,32.5723],[79.3395,32.592],[79.3207,32.5927],[79.3111,32.5718],[79.2951,32.5501],[79.2736,32.5324],[79.2509,32.5341],[79.2378,32.5059],[79.1951,32.483],[79.1479,32.4811],[79.1374,32.4769],[79.1313,32.4661],[79.1466,32.4429],[79.1443,32.4227],[79.1386,32.4176],[79.1257,32.4136],[79.1209,32.3939],[79.1151,32.3842],[79.1089,32.3829],[79.071,32.3907],[79.0337,32.3859],[79.0146,32.3773],[78.9938,32.3452],[78.9892,32.3398],[78.9819,32.3378],[78.9617,32.3661],[78.95,32.3673],[78.9035,32.3929],[78.8753,32.4172],[78.8589,32.4406],[78.8344,32.4361],[78.8272,32.4387],[78.8203,32.4624],[78.8071,32.4817],[78.7904,32.5332],[78.7768,32.5584],[78.7764,32.5731],[78.7916,32.5857],[78.7971,32.5984],[78.7925,32.6184],[78.7792,32.6281],[78.7627,32.6551],[78.7691,32.6971],[78.7613,32.6974],[78.7423,32.6737],[78.7231,32.6612],[78.7037,32.6566],[78.6727,32.6578],[78.6623,32.654],[78.6479,32.6315],[78.639,32.6097],[78.6209,32.5967],[78.6161,32.5961],[78.6086,32.6062],[78.5951,32.6104],[78.5881,32.6159],[78.5734,32.6176],[78.5357,32.6086],[78.5149,32.5895],[78.4996,32.5817],[78.4725,32.5835],[78.4598,32.58],[78.4439,32.5699],[78.4366,32.5616],[78.4306,32.5489],[78.428,32.5318],[78.4,32.526],[78.3278,32.4722],[78.296,32.5043],[78.3167,32.5257],[78.3142,32.574],[78.3494,32.5813],[78.4066,32.6197],[78.3937,32.626],[78.3887,32.6346],[78.381,32.6685],[78.3855,32.6961],[78.3958,32.7159],[78.3892,32.7303],[78.3894,32.7584],[78.3627,32.7601],[78.3056,32.7345],[78.316,32.7214],[78.3136,32.7094],[78.2906,32.6995],[78.2769,32.6995],[78.2544,32.6913],[78.251,32.6803],[78.2307,32.6658],[78.2017,32.6605],[78.1882,32.6739],[78.1703,32.6757],[78.1537,32.667],[78.1391,32.639],[78.1338,32.6391],[78.1169,32.6567],[78.111,32.6589],[78.0966,32.6495],[78.0829,32.621],[78.0617,32.6255],[78.0515,32.6324],[78.052,32.6124],[78.059,32.602],[78.0591,32.5959],[78.0533,32.5886],[78.0349,32.5837],[78.0,32.5832],[77.9718,32.6228],[77.9702,32.6372],[77.9565,32.6449],[77.9447,32.6595],[77.9378,32.6764],[77.9209,32.69],[77.9271,32.7184],[77.9362,32.7278],[77.9295,32.7335],[77.9357,32.7539],[77.9329,32.7631],[77.9267,32.7691],[77.9173,32.7724],[77.8987,32.7725],[77.8848,32.7874],[77.8868,32.7975],[77.8791,32.8133],[77.8655,32.8256],[77.843,32.8371],[77.8261,32.8332],[77.8169,32.8431],[77.7856,32.8557],[77.7793,32.8621],[77.7907,32.8882],[77.8049,32.889],[77.8105,32.8954],[77.8081,32.9027],[77.7776,32.9248],[77.7628,32.9433],[77.7545,32.9453],[77.7412,32.9618],[77.7306,32.9693],[77.7217,32.9636],[77.7131,32.9753],[77.6976,32.9753],[77.6889,32.9838],[77.6833,32.9836],[77.678,32.9665],[77.6713,32.9569],[77.6565,32.9537],[77.6413,32.9421],[77.6309,32.939],[77.6043,32.9375],[77.6019,32.9414],[77.5976,32.9293],[77.5875,32.9192],[77.5717,32.9107],[77.5626,32.9093],[77.5374,32.885],[77.5121,32.8791],[77.5023,32.8842],[77.4729,32.8594],[77.4539,32.8636],[77.4434,32.8814],[77.4278,32.8759],[77.415,32.8847],[77.4052,32.8833],[77.3971,32.8786],[77.3889,32.8652],[77.3773,32.8573],[77.3795,32.8403],[77.374,32.823],[77.3659,32.8189],[77.3535,32.8166],[77.3392,32.8202],[77.3382,32.8259],[77.3284,32.8355],[77.3301,32.8441],[77.3227,32.8519],[77.3063,32.8505],[77.2988,32.8535],[77.2759,32.8743],[77.2652,32.8628],[77.2564,32.8631],[77.2539,32.8702],[77.2424,32.878],[77.2417,32.8807],[77.2469,32.8848],[77.2459,32.8935],[77.2383,32.8949],[77.2587,32.9248],[77.2629,32.9485],[77.2716,33.0213],[77.2618,33.0519],[77.2665,33.1264],[77.2951,33.1636],[77.3358,33.2057],[77.3441,33.2277],[77.3444,33.2565],[77.3346,33.2854],[77.337,33.321],[77.3454,33.3616],[77.3638,33.3818],[77.4391,33.4287],[77.4636,33.4489],[77.4985,33.4876],[77.5252,33.5246],[77.53,33.5806],[77.518,33.5976],[77.4898,33.6097],[77.4615,33.6133],[77.4331,33.6119],[77.3279,33.6279],[77.3058,33.6535],[77.2719,33.7131],[77.2235,33.7456],[77.1546,33.7612],[77.0936,33.7582],[77.0084,33.767],[76.978,33.7756],[76.9174,33.8233],[76.8687,33.8438],[76.7976,33.8678],[76.7124,33.9222],[76.6535,33.9901],[76.6353,34.0207],[76.6292,34.058],[76.6333,34.0936],[76.6579,34.158],[76.6723,34.1885],[76.7112,34.2461],[76.6949,34.2648],[76.6806,34.2885],[76.6503,34.4259],[76.6156,34.5311],[76.6095,34.5803],[76.5993,34.6074],[76.587,34.6261],[76.5686,34.643],[76.5111,34.6719],[76.4824,34.682],[76.466,34.7041],[76.4557,34.7329],[76.4372,34.7634],[76.4248,34.777],[76.4125,34.8007],[76.3751,34.8331],[76.5393,34.8254],[76.8474,34.8333],[76.9643,34.8494],[77.0414,34.8676],[77.0688,34.8798],[77.0938,34.9145],[77.109,34.9616],[77.1092,34.9985],[77.0945,35.0435],[77.0448,35.0744],[77.0425,35.1031],[77.065,35.1398],[77.1075,35.1499],[77.1598,35.1477],[77.2494,35.135],[77.2793,35.1451],[77.3372,35.2226],[77.451,35.4204],[77.4809,35.4779],[77.5125,35.4886],[77.54,35.4813],[77.5606,35.4862],[77.5727,35.4835],[77.582,35.4751],[77.5938,35.4764],[77.6177,35.4698],[77.6345,35.4785],[77.645,35.4891],[77.6724,35.4706],[77.6801,35.471],[77.6867,35.4777],[77.723,35.4755],[77.7265,35.4849],[77.7228,35.4989],[77.7245,35.5151],[77.7289,35.5239],[77.7336,35.5245],[77.7583,35.5022],[77.7728,35.4954],[77.7871,35.4953],[77.8083,35.5112],[77.8185,35.5129],[77.8547,35.4927],[77.8645,35.4812],[77.8689,35.4801],[77.8799,35.4859],[77.8871,35.485],[77.891,35.476],[77.9013,35.4681],[77.906,35.4693],[77.922,35.4945],[77.9327,35.4894],[77.9719,35.4582],[77.9825,35.4559],[77.9861,35.4597],[77.9843,35.4646],[77.9651,35.4791],[77.9649,35.496],[77.9312,35.5158],[77.9376,35.5322],[77.9584,35.5557],[77.9668,35.5716],[77.966,35.5876],[77.9525,35.607],[77.9651,35.6039],[77.991,35.5818],[78.0243,35.5879],[78.042,35.5874],[78.0679,35.5629],[78.0777,35.5492],[78.0929,35.5562],[78.1011,35.5515],[78.111,35.5519],[78.1252,35.5417],[78.1373,35.5389],[78.1442,35.5424],[78.1473,35.5496],[78.1567,35.552],[78.1516,35.5782],[78.1665,35.6132],[78.1622,35.6294],[78.1682,35.6302],[78.1792,35.6223],[78.1861,35.624],[78.1985,35.6486],[78.1997,35.6692],[78.2303,35.6519],[78.2551,35.6456],[78.2593,35.6584],[78.269,35.6635],[78.2721,35.6689],[78.2683,35.6781],[78.2714,35.6882],[78.269,35.6972],[78.271,35.7031],[78.2675,35.711],[78.2733,35.722],[78.2894,35.7257],[78.3033,35.7213],[78.3389,35.7206],[78.3861,35.7355],[78.3975,35.7462],[78.3998,35.7563],[78.4126,35.7659],[78.4163,35.7793],[78.4232,35.7853],[78.4359,35.7844],[78.4647,35.7742],[78.5091,35.7727],[78.5213,35.7638],[78.5605,35.7925],[78.5749,35.7897],[78.5806,35.8081],[78.6195,35.8171],[78.665,35.8574],[78.681,35.8591],[78.6914,35.8563],[78.7189,35.8683],[78.7511,35.8669],[78.7688,35.8697],[78.7902,35.8593],[78.8045,35.8558],[78.8238,35.8558],[78.9399,35.8796],[78.9605,35.8926],[78.9704,35.8889],[78.9755,35.8801],[79.0038,35.8568],[79.0216,35.8487],[79.0638,35.8465],[79.1325,35.8362],[79.157,35.8503],[79.1803,35.8702],[79.194,35.8869],[79.1978,35.8986],[79.1881,35.9274],[79.1898,35.9472],[79.198,35.9615],[79.2155,35.9788],[79.2418,35.9868],[79.2902,35.9897],[79.3448,35.9886],[79.3847,35.9943]]]}},{"type":"Feature","properties":{"district":"Poonch","region":"Jammu","admin_unit":"Jammu and Kashmir (state)","period":"jk_1979_2006"},"geometry":{"type":"Polygon","coordinates":[[[74.3201,33.9556],[74.3445,33.9269],[74.3672,33.912],[74.4028,33.8736],[74.4134,33.8569],[74.3994,33.8464],[74.3938,33.826],[74.4196,33.7688],[74.436,33.7623],[74.4651,33.7373],[74.4756,33.7222],[74.4885,33.6919],[74.5011,33.6735],[74.5176,33.6602],[74.5269,33.6095],[74.5239,33.567],[74.5393,33.513],[74.5582,33.4845],[74.5524,33.4725],[74.516,33.4736],[74.4873,33.4867],[74.4749,33.4967],[74.4462,33.5115],[74.4088,33.5515],[74.3861,33.5664],[74.3698,33.5712],[74.3434,33.5724],[74.3273,33.5687],[74.2732,33.5457],[74.2554,33.5301],[74.2438,33.5095],[74.2102,33.4783],[74.2008,33.4544],[74.1769,33.4387],[74.1459,33.3906],[74.1322,33.3751],[74.116,33.3765],[74.0869,33.4047],[74.0738,33.4367],[74.0815,33.5216],[74.0749,33.5401],[74.0585,33.5483],[74.0042,33.5336],[73.9898,33.5418],[73.9833,33.5552],[73.9728,33.5669],[73.9383,33.5695],[73.9207,33.5617],[73.8815,33.6498],[73.8768,33.7075],[73.8845,33.7428],[73.9448,33.8367],[73.9698,33.8525],[74.1154,33.9109],[74.1489,33.9283],[74.157,33.9439],[74.1632,33.9735],[74.1624,34.01],[74.2429,33.9979],[74.2655,33.9882],[74.3029,33.96],[74.3201,33.9556]]]}},{"type":"Feature","properties":{"district":"Pulwama","region":"Kashmir Valley","admin_unit":"Jammu and Kashmir (state)","period":"jk_1979_2006"},"geometry":{"type":"Polygon","coordinates":[[[74.5554,33.6922],[74.6073,33.7312],[74.6395,33.7435],[74.6636,33.7575],[74.7219,33.7804],[74.7481,33.7944],[74.8046,33.8087],[74.8447,33.8364],[74.8586,33.8536],[74.8846,33.8743],[74.9204,33.9171],[74.9299,33.9529],[74.927,34.0003],[74.9206,34.0172],[74.9122,34.0307],[74.8936,34.0471],[74.9156,34.0629],[74.9399,34.0717],[74.9786,34.0756],[75.06,34.08],[75.1253,34.0774],[75.1496,34.0844],[75.1766,34.0542],[75.2075,34.0308],[75.22,34.0174],[75.2445,34.0074],[75.2652,33.9907],[75.2617,33.9466],[75.2338,33.9107],[75.1935,33.8831],[75.1613,33.8675],[75.1312,33.8383],[75.0775,33.7699],[74.9983,33.6587],[74.9783,33.6432],[74.9095,33.6355],[74.8892,33.6369],[74.8505,33.6466],[74.8341,33.6548],[74.8135,33.6715],[74.7829,33.6795],[74.7,33.6665],[74.6696,33.666],[74.6045,33.6735],[74.5554,33.6922]]]}},{"type":"Feature","properties":{"district":"Rajouri","region":"Jammu","admin_unit":"Jammu and Kashmir (state)","period":"jk_1979_2006"},"geometry":{"type":"Polygon","coordinates":[[[74.5545,33.4769],[74.5972,33.4614],[74.6121,33.4294],[74.6409,33.4044],[74.6497,33.374],[74.6459,33.3621],[74.6474,33.2943],[74.6558,33.2775],[74.6647,33.2403],[74.659,33.2266],[74.6451,33.2162],[74.556,33.2284],[74.5278,33.2279],[74.5181,33.2108],[74.5165,33.1921],[74.5289,33.1788],[74.5677,33.1608],[74.6123,33.1496],[74.6327,33.138],[74.637,33.1246],[74.6254,33.1023],[74.5678,33.0675],[74.5337,33.0619],[74.5113,33.0717],[74.491,33.0764],[74.445,33.0637],[74.4188,33.0667],[74.4005,33.0715],[74.3842,33.0813],[74.3717,33.0964],[74.3553,33.108],[74.2781,33.132],[74.2416,33.1381],[74.2172,33.1461],[74.184,33.1828],[74.1733,33.2046],[74.1686,33.2282],[74.1679,33.2537],[74.1537,33.328],[74.1391,33.3464],[74.1284,33.3665],[74.1288,33.3754],[74.1322,33.3751],[74.1459,33.3906],[74.1769,33.4387],[74.2008,33.4544],[74.2102,33.4783],[74.2438,33.5095],[74.2554,33.5301],[74.2732,33.5457],[74.3273,33.5687],[74.3434,33.5724],[74.3698,33.5712],[74.3861,33.5664],[74.4088,33.5515],[74.4462,33.5115],[74.4749,33.4967],[74.4873,33.4867],[74.516,33.4736],[74.5524,33.4725],[74.5545,33.4769]]]}},{"type":"Feature","properties":{"district":"Srinagar","region":"Kashmir Valley","admin_unit":"Jammu and Kashmir (state)","period":"jk_1979_2006"},"geometry":{"type":"Polygon","coordinates":[[[75.3582,34.352],[75.4073,34.3329],[75.5287,34.2661],[75.625,34.2346],[75.6312,34.2228],[75.6191,34.2159],[75.5539,34.2002],[75.4563,34.1688],[75.4379,34.1772],[75.3868,34.1852],[75.3498,34.1984],[75.323,34.2202],[75.3086,34.2251],[75.2803,34.2062],[75.2684,34.184],[75.2564,34.1704],[75.2092,34.1834],[75.1825,34.195],[75.1725,34.1864],[75.1626,34.1677],[75.1629,34.149],[75.1712,34.1372],[75.1696,34.1135],[75.1489,34.0842],[75.1253,34.0774],[75.0356,34.0797],[74.9399,34.0717],[74.9156,34.0629],[74.8936,34.0471],[74.8771,34.0522],[74.8508,34.0468],[74.8283,34.0465],[74.8232,34.049],[74.8241,34.0532],[74.8135,34.0768],[74.7906,34.1002],[74.7678,34.1185],[74.7202,34.1484],[74.7013,34.1735],[74.6962,34.2226],[74.6873,34.2547],[74.6746,34.2766],[74.6657,34.3087],[74.6894,34.3463],[74.7221,34.3468],[74.7673,34.3373],[74.8,34.3378],[74.8388,34.34],[74.8775,34.3507],[74.8935,34.3696],[74.9191,34.4174],[74.9532,34.4551],[74.9963,34.4523],[75.0231,34.4391],[75.0439,34.4223],[75.0606,34.4022],[75.0854,34.3872],[75.1513,34.3608],[75.2005,34.3546],[75.2698,34.3672],[75.3582,34.352]]]}},{"type":"Feature","properties":{"district":"Udhampur","region":"Jammu","admin_unit":"Jammu and Kashmir (state)","period":"jk_1979_2006"},"geometry":{"type":"Polygon","coordinates":[[[74.84,33.4582],[74.9208,33.4661],[74.9977,33.4671],[75.0181,33.4571],[75.0372,33.4065],[75.0376,33.3811],[75.0287,33.3097],[75.0292,33.2809],[75.0194,33.2639],[75.0182,33.2214],[75.0287,33.1978],[75.0695,33.1661],[75.1404,33.1449],[75.2152,33.1305],[75.2639,33.1073],[75.3166,33.0874],[75.3489,33.081],[75.3835,33.0576],[75.4199,33.0443],[75.4422,33.031],[75.4728,32.999],[75.5233,32.9808],[75.5878,32.9661],[75.6221,32.9545],[75.6665,32.9344],[75.7273,32.8908],[75.7516,32.8655],[75.7918,32.8623],[75.8245,32.8538],[75.802,32.8455],[75.7799,32.8419],[75.6979,32.8109],[75.682,32.7955],[75.6702,32.77],[75.6543,32.7546],[75.5902,32.7389],[75.516,32.7434],[75.4879,32.7398],[75.4762,32.716],[75.4705,32.6888],[75.4547,32.6717],[75.4206,32.668],[75.3988,32.6559],[75.3718,32.6304],[75.3289,32.6332],[75.2927,32.643],[75.2726,32.653],[75.2503,32.6663],[75.2199,32.6914],[75.1995,32.7116],[75.1769,32.7486],[75.1646,32.762],[75.148,32.7991],[75.1135,32.8225],[75.0746,32.8678],[75.0502,32.8844],[74.9966,32.8465],[74.9764,32.8513],[74.9679,32.8783],[74.9518,32.8781],[74.9038,32.869],[74.8353,32.8799],[74.8169,32.8966],[74.8124,32.9186],[74.8457,32.9632],[74.8393,32.98],[74.825,32.9917],[74.8085,33.0118],[74.782,33.0318],[74.7517,33.033],[74.7298,33.0242],[74.714,33.007],[74.6927,32.9711],[74.6688,32.9572],[74.6283,32.9718],[74.6119,32.9851],[74.5913,32.9962],[74.5954,33.0035],[74.5786,33.0338],[74.5417,33.0632],[74.5678,33.0675],[74.6254,33.1023],[74.637,33.1246],[74.6327,33.138],[74.6123,33.1496],[74.5677,33.1608],[74.5289,33.1788],[74.5165,33.1921],[74.5181,33.2108],[74.5278,33.2279],[74.556,33.2284],[74.6451,33.2162],[74.659,33.2266],[74.6647,33.2403],[74.6558,33.2775],[74.6474,33.2943],[74.6459,33.3621],[74.6497,33.374],[74.6473,33.3892],[74.6409,33.4044],[74.6121,33.4294],[74.6012,33.4525],[74.6192,33.4702],[74.6897,33.4865],[74.7016,33.5003],[74.7072,33.5207],[74.7314,33.5262],[74.7537,33.5248],[74.7742,33.5115],[74.8013,33.4712],[74.84,33.4582]]]}},{"type":"Feature","properties":{"district":"Pakistan-occupied Jammu & Kashmir (PoJK)","region":"PoJK","admin_unit":"Jammu and Kashmir (state)","period":"jk_1979_2006","occupied":true},"geometry":{"type":"MultiPolygon","coordinates":[[[[74.6819,34.7702],[74.6035,34.8691],[74.5752,34.8652],[74.4673,34.8177],[74.3828,34.7675],[74.3492,34.7679],[74.3531,34.744],[74.3476,34.7025],[74.3409,34.6968],[74.2779,34.6719],[74.252,34.6443],[74.2034,34.6197],[74.175,34.6089],[74.0526,34.5862],[73.9775,34.5609],[73.9533,34.5468],[73.9193,34.5173],[73.9097,34.4984],[73.9096,34.4555],[73.9046,34.4463],[73.8726,34.4194],[73.8212,34.4084],[73.7756,34.3673],[73.7773,34.3576],[73.8113,34.3663],[73.8524,34.3486],[73.8674,34.3584],[73.8843,34.3561],[73.9326,34.3652],[73.9536,34.3495],[73.9698,34.2975],[73.994,34.2947],[74.0138,34.2836],[74.0206,34.2527],[74.0215,34.1753],[74.0121,34.1633],[73.9931,34.1581],[73.9866,34.1436],[73.9518,34.1187],[73.9475,34.0962],[73.9305,34.0886],[73.9232,34.0634],[73.9369,34.0563],[73.95,34.0364],[73.9891,34.0338],[74.0023,34.0517],[74.0146,34.0571],[74.0356,34.0504],[74.0775,34.0601],[74.1714,34.0585],[74.1904,34.0449],[74.213,34.0395],[74.2199,34.0196],[74.2662,34.02],[74.2949,33.9824],[74.2963,33.9648],[74.2429,33.9979],[74.1624,34.01],[74.1632,33.9735],[74.1489,33.9283],[73.9698,33.8525],[73.9448,33.8367],[73.8845,33.7428],[73.8768,33.7075],[73.8815,33.6498],[73.9207,33.5617],[73.9383,33.5695],[73.9728,33.5669],[73.9898,33.5418],[74.0042,33.5336],[74.0585,33.5483],[74.0749,33.5401],[74.0815,33.5216],[74.0738,33.4367],[74.0783,33.4232],[74.1015,33.388],[74.116,33.3765],[74.1288,33.3754],[74.1284,33.3665],[74.1537,33.328],[74.1587,33.3016],[74.1397,33.2851],[74.1027,33.2655],[74.0568,33.2615],[74.0402,33.2493],[74.0276,33.2291],[74.1588,33.1702],[74.2034,33.0923],[74.303,33.0472],[74.336,33.0437],[74.3597,32.9597],[74.3514,32.9348],[74.3787,32.9347],[74.4273,32.9048],[74.4367,32.8592],[74.4576,32.8356],[74.4648,32.799],[74.4452,32.7804],[74.4065,32.7827],[74.3973,32.7664],[74.388,32.7686],[74.385,32.7583],[74.3708,32.759],[74.3306,32.7765],[74.3249,32.7935],[74.3022,32.8047],[74.3018,32.8233],[74.2174,32.8453],[74.2025,32.8707],[74.1873,32.8732],[74.1782,32.883],[74.0572,32.9108],[74.0486,32.9324],[74.0143,32.9298],[73.9908,32.9372],[73.9973,32.9602],[73.9685,32.9692],[73.96,32.9863],[73.942,32.9884],[73.9172,33.0156],[73.8835,33.0153],[73.8581,33.0039],[73.8296,33.0074],[73.8183,33.0004],[73.816,32.9904],[73.791,32.9953],[73.7434,33.0394],[73.7353,33.0667],[73.6886,33.0884],[73.6526,33.0852],[73.6279,33.0899],[73.6261,33.14],[73.6376,33.1423],[73.6464,33.162],[73.6564,33.1693],[73.6577,33.2081],[73.6409,33.2268],[73.6287,33.2157],[73.6253,33.2369],[73.6056,33.2517],[73.598,33.2827],[73.6041,33.2953],[73.5898,33.3053],[73.5821,33.3265],[73.5908,33.3369],[73.5868,33.341],[73.5751,33.3342],[73.5658,33.3425],[73.5714,33.3562],[73.5585,33.3684],[73.5649,33.3943],[73.5914,33.4222],[73.5827,33.4294],[73.5879,33.4435],[73.6249,33.4576],[73.6131,33.4802],[73.6016,33.4784],[73.5966,33.5005],[73.6002,33.505],[73.6095,33.5009],[73.6073,33.52],[73.6331,33.5335],[73.619,33.544],[73.621,33.5742],[73.6009,33.5933],[73.6038,33.6076],[73.5895,33.6046],[73.5783,33.6162],[73.5614,33.6215],[73.5691,33.6411],[73.5632,33.6759],[73.5911,33.6989],[73.5976,33.7162],[73.5913,33.7542],[73.5664,33.769],[73.5584,33.7836],[73.5729,33.8458],[73.5857,33.8646],[73.5899,33.8843],[73.579,33.9108],[73.5496,33.9315],[73.5165,34.0005],[73.5083,34.0603],[73.4975,34.0844],[73.4953,34.134],[73.489,34.1448],[73.4931,34.2202],[73.47,34.2518],[73.4786,34.2906],[73.4678,34.296],[73.4538,34.2783],[73.4536,34.2973],[73.4381,34.3296],[73.4242,34.3397],[73.4251,34.3535],[73.4015,34.3584],[73.3908,34.3747],[73.4093,34.3868],[73.4202,34.4178],[73.4254,34.4423],[73.4222,34.4707],[73.4375,34.5045],[73.4299,34.5214],[73.4413,34.5384],[73.4478,34.5742],[73.5007,34.5806],[73.523,34.5747],[73.5574,34.5934],[73.6184,34.5861],[73.6395,34.5662],[73.6509,34.5683],[73.6609,34.589],[73.6602,34.6104],[73.6962,34.6541],[73.6669,34.6661],[73.6675,34.6847],[73.6813,34.6956],[73.6916,34.7167],[73.7066,34.7254],[73.7314,34.7715],[73.7501,34.7872],[73.7738,34.7969],[73.8211,34.796],[73.8497,34.8177],[73.8674,34.8115],[73.8754,34.8184],[73.9012,34.8218],[73.9182,34.8145],[73.9357,34.8335],[73.9644,34.8417],[73.9744,34.8653],[74.0304,34.8776],[74.0422,34.8945],[74.0381,34.9033],[74.0439,34.9219],[74.0658,34.9301],[74.074,34.94],[74.0605,34.9936],[74.1082,35.0195],[74.0977,35.0342],[74.0664,35.0485],[74.0933,35.0965],[74.1344,35.108],[74.123,35.1244],[74.151,35.117],[74.1709,35.1001],[74.2104,35.1048],[74.2323,35.0992],[74.2592,35.0606],[74.2987,35.0856],[74.3566,35.0772],[74.4404,35.1556],[74.4678,35.1478],[74.4772,35.1307],[74.4935,35.1306],[74.5198,35.1188],[74.5337,35.0949],[74.5568,35.0759],[74.5613,35.0543],[74.556,35.0403],[74.5845,35.0349],[74.6078,35.005],[74.6074,34.9912],[74.5893,34.9596],[74.5905,34.9289],[74.6207,34.93],[74.6512,34.9168],[74.6725,34.9188],[74.6986,34.8891],[74.7379,34.8712],[74.7468,34.8501],[74.775,34.8244],[74.7924,34.7757],[74.8158,34.7673],[74.8199,34.7364],[74.8032,34.7147],[74.7675,34.7045],[74.6819,34.7702]]]]}},{"type":"Feature","properties":{"district":"Gilgit-Baltistan (Pakistan-occupied)","region":"PoJK","admin_unit":"Jammu and Kashmir (state)","period":"jk_1979_2006","occupied":true},"geometry":{"type":"MultiPolygon","coordinates":[[[[74.7087,37.0776],[74.7282,37.026],[74.75,37.0117],[74.7592,37.0148],[74.7661,37.0269],[74.7789,37.0298],[74.8401,37.0223],[74.846,36.9899],[74.9109,36.9124],[74.9222,36.9061],[74.9413,36.9347],[74.9912,36.9628],[75.0128,36.966],[75.0187,36.9764],[75.096,36.9428],[75.1511,36.9671],[75.1734,36.9861],[75.209,37.0368],[75.265,37.0519],[75.2792,37.0469],[75.3438,37.0525],[75.3452,37.0031],[75.352,36.981],[75.3763,36.9605],[75.3866,36.9594],[75.4012,36.968],[75.4231,36.9607],[75.4268,36.939],[75.4088,36.9167],[75.4142,36.8919],[75.417,36.8872],[75.4378,36.8915],[75.444,36.8872],[75.46,36.8306],[75.4742,36.8108],[75.514,36.7921],[75.6165,36.7616],[75.6752,36.696],[75.754,36.584],[75.8062,36.5543],[75.8491,36.5443],[75.9234,36.5024],[75.997,36.4843],[76.0259,36.486],[76.0692,36.4775],[76.0846,36.4696],[76.1103,36.4485],[75.9816,36.4654],[75.9648,36.4571],[75.9611,36.4442],[75.9668,36.4209],[75.9488,36.3441],[75.9489,36.3],[75.961,36.2745],[75.9928,36.2402],[75.9727,36.2323],[75.9524,36.2118],[75.9493,36.1893],[75.9569,36.1691],[75.8876,36.1281],[75.8744,36.096],[75.8836,36.052],[75.9084,36.0173],[75.9423,35.9904],[75.9793,35.9763],[76.0565,35.9718],[76.0765,35.9624],[76.0961,35.9336],[76.1203,35.8176],[76.1558,35.789],[76.1906,35.785],[76.2596,35.7976],[76.3162,35.7901],[76.3542,35.811],[76.4101,35.8123],[76.4402,35.8419],[76.5074,35.8528],[76.5403,35.879],[76.5448,35.8642],[76.5313,35.7814],[76.5547,35.7393],[76.5958,35.7176],[76.6685,35.6954],[76.696,35.6786],[76.7373,35.6367],[76.7603,35.6273],[76.8325,35.6238],[76.8677,35.5853],[76.9101,35.5638],[76.9759,35.5587],[77.0192,35.5646],[77.0496,35.5616],[77.095,35.5209],[77.1364,35.506],[77.2762,35.5084],[77.3777,35.4529],[77.4131,35.4494],[77.4699,35.4568],[77.3372,35.2226],[77.2793,35.1451],[77.2494,35.135],[77.1075,35.1499],[77.065,35.1398],[77.0425,35.1031],[77.0448,35.0744],[77.0945,35.0435],[77.1092,34.9985],[77.109,34.9616],[77.0938,34.9145],[77.0688,34.8798],[77.0414,34.8676],[76.9643,34.8494],[76.8474,34.8333],[76.5393,34.8254],[76.3751,34.8331],[76.3425,34.8583],[76.3075,34.8616],[76.2767,34.8497],[76.2521,34.831],[76.2193,34.7885],[76.1353,34.7273],[76.121,34.7086],[76.078,34.683],[76.0473,34.6744],[75.9898,34.6725],[75.8853,34.65],[75.8156,34.6428],[75.7051,34.6116],[75.3924,34.5434],[75.3046,34.515],[75.1384,34.4991],[75.0835,34.5],[75.0252,34.5102],[74.9878,34.5286],[74.9353,34.5856],[74.7675,34.7045],[74.8088,34.7197],[74.8203,34.7383],[74.8168,34.7657],[74.8069,34.7746],[74.7924,34.7757],[74.775,34.8244],[74.7468,34.8501],[74.7408,34.8684],[74.6986,34.8891],[74.6777,34.9159],[74.6512,34.9168],[74.6207,34.93],[74.5905,34.9289],[74.5893,34.9596],[74.6074,34.9912],[74.6078,35.005],[74.5845,35.0349],[74.556,35.0403],[74.5613,35.0543],[74.5568,35.0759],[74.5337,35.0949],[74.5198,35.1188],[74.4935,35.1306],[74.4772,35.1307],[74.4678,35.1478],[74.4404,35.1556],[74.3566,35.0772],[74.2987,35.0856],[74.2592,35.0606],[74.2323,35.0992],[74.2104,35.1048],[74.1709,35.1001],[74.1366,35.1235],[74.1168,35.1248],[74.1098,35.1322],[74.1142,35.1519],[74.102,35.1458],[74.0804,35.1547],[74.0391,35.1475],[74.0091,35.1661],[73.9998,35.1844],[73.9592,35.1744],[73.9173,35.2122],[73.8652,35.2108],[73.8468,35.2296],[73.7964,35.2455],[73.7775,35.2439],[73.73,35.2173],[73.7152,35.2284],[73.7271,35.2783],[73.6999,35.3232],[73.7004,35.3584],[73.7116,35.3872],[73.7389,35.4279],[73.7547,35.442],[73.7951,35.4602],[73.7849,35.5257],[73.7351,35.5366],[73.7208,35.5535],[73.6727,35.5512],[73.6355,35.5718],[73.5711,35.5548],[73.5579,35.5557],[73.5321,35.5711],[73.5067,35.5654],[73.4818,35.5773],[73.4068,35.564],[73.3674,35.6055],[73.2727,35.6298],[73.2155,35.6751],[73.1363,35.7192],[73.1357,35.7938],[73.1542,35.8417],[73.1277,35.853],[73.0892,35.8834],[73.0759,35.8853],[73.056,35.8637],[73.0381,35.8548],[73.0141,35.8553],[72.9997,35.8635],[72.9578,35.8477],[72.9294,35.8455],[72.9047,35.8536],[72.9016,35.8817],[72.8576,35.8777],[72.8302,35.8874],[72.8253,35.8748],[72.799,35.8675],[72.7981,35.8558],[72.7773,35.844],[72.7375,35.8588],[72.6911,35.8329],[72.6604,35.8492],[72.6456,35.8663],[72.6016,35.8711],[72.5695,35.9073],[72.5337,35.9174],[72.5311,35.9529],[72.5484,35.9625],[72.5561,35.9967],[72.5732,35.9964],[72.5836,36.0197],[72.596,36.0273],[72.5862,36.0504],[72.55,36.0567],[72.5311,36.0747],[72.5366,36.1145],[72.5525,36.1367],[72.5738,36.151],[72.5515,36.1812],[72.5603,36.1966],[72.5605,36.2124],[72.5854,36.2305],[72.5952,36.2622],[72.6367,36.2765],[72.6635,36.2642],[72.6819,36.2628],[72.694,36.2501],[72.6886,36.2686],[72.6924,36.2757],[72.7236,36.2841],[72.7505,36.3051],[72.7786,36.3099],[72.8157,36.3384],[72.8297,36.3611],[72.8509,36.3727],[72.8664,36.3735],[72.8833,36.3873],[72.8901,36.3978],[72.8902,36.4247],[72.8775,36.4381],[72.8795,36.4433],[72.9025,36.4495],[72.9223,36.463],[72.9435,36.4585],[72.9628,36.4675],[72.9921,36.4581],[73.0039,36.4761],[72.9904,36.4805],[72.9994,36.5074],[72.996,36.5149],[73.0615,36.5377],[73.0739,36.5615],[73.0906,36.5716],[73.0929,36.5866],[73.1125,36.6101],[73.092,36.6348],[73.0944,36.6671],[73.085,36.6823],[73.0854,36.6997],[73.1028,36.6877],[73.1265,36.6866],[73.1455,36.7],[73.1811,36.712],[73.1894,36.7218],[73.215,36.7],[73.2344,36.6995],[73.2532,36.7091],[73.3147,36.7064],[73.3303,36.7155],[73.3608,36.7155],[73.3721,36.7349],[73.4,36.7317],[73.4416,36.7451],[73.4634,36.7317],[73.4825,36.7339],[73.5115,36.7154],[73.5299,36.7207],[73.5439,36.7094],[73.6002,36.7203],[73.6075,36.6985],[73.6332,36.6901],[73.6549,36.6961],[73.7006,36.6849],[73.7251,36.71],[73.7831,36.7024],[73.8091,36.7167],[73.8841,36.6993],[73.9016,36.707],[73.8972,36.7163],[73.9065,36.7315],[73.9001,36.7497],[73.8636,36.7882],[73.8294,36.7893],[73.8151,36.7984],[73.8063,36.8154],[73.7782,36.8153],[73.7442,36.8334],[73.7239,36.8344],[73.7191,36.8572],[73.6814,36.8856],[73.6903,36.9121],[73.7112,36.9128],[73.7454,36.8964],[73.7677,36.9047],[73.7933,36.8937],[73.8097,36.8965],[73.8181,36.8857],[73.8358,36.8869],[73.8491,36.8999],[73.8788,36.8944],[73.9134,36.8713],[73.9238,36.878],[73.9378,36.8739],[73.9714,36.8401],[73.9943,36.8266],[74.026,36.8263],[74.0558,36.8064],[74.0927,36.8386],[74.121,36.8323],[74.1427,36.8401],[74.1568,36.8887],[74.1691,36.9025],[74.2178,36.8989],[74.2614,36.8866],[74.3239,36.9227],[74.3683,36.9589],[74.4162,36.9731],[74.4299,36.99],[74.5322,36.9868],[74.5545,36.9536],[74.5787,36.9486],[74.5894,37.0286],[74.5818,37.0434],[74.6593,37.0577],[74.6959,37.0781],[74.7087,37.0776]]],[[[77.0799,35.7971],[77.1195,35.7964],[77.1226,35.7868],[77.1361,35.7818],[77.1435,35.7697],[77.1642,35.7667],[77.1631,35.7405],[77.1031,35.7574],[77.0799,35.7971]]],[[[76.4081,36.3182],[76.432,36.3082],[76.4366,36.2884],[76.4495,36.2716],[76.4464,36.2647],[76.4397,36.2607],[76.4081,36.3182]]],[[[76.2291,36.3629],[76.2548,36.3478],[76.2689,36.3472],[76.3438,36.3628],[76.3918,36.3298],[76.3201,36.35],[76.2472,36.3411],[76.2291,36.3629]]],[[[74.1585,33.3027],[74.1733,33.2046],[74.184,33.1828],[74.2172,33.1461],[74.3553,33.108],[74.3842,33.0813],[74.4188,33.0667],[74.445,33.0637],[74.491,33.0764],[74.5417,33.0632],[74.5786,33.0338],[74.5911,33.0153],[74.5954,33.0035],[74.5896,32.9932],[74.5654,32.9929],[74.4941,32.9459],[74.4965,32.929],[74.5216,32.8887],[74.4695,32.7997],[74.4605,32.7918],[74.4659,32.8073],[74.459,32.8321],[74.4367,32.8592],[74.434,32.8891],[74.4253,32.9082],[74.3768,32.9353],[74.3514,32.9348],[74.36,32.9578],[74.3374,33.0424],[74.3257,33.0482],[74.303,33.0472],[74.2034,33.0923],[74.1588,33.1702],[74.0276,33.2291],[74.0402,33.2493],[74.0568,33.2615],[74.1045,33.2661],[74.1381,33.284],[74.1585,33.3027]]],[[[74.3682,34.7549],[74.359,34.7124],[74.3409,34.6968],[74.3476,34.7025],[74.3531,34.744],[74.3492,34.7679],[74.3863,34.7705],[74.3682,34.7549]]],[[[74.0083,34.2851],[74.062,34.2641],[74.1751,34.2375],[74.251,34.2271],[74.3149,34.2028],[74.3275,34.1895],[74.3325,34.1539],[74.3008,34.1194],[74.2913,34.0921],[74.2938,34.0752],[74.3217,34.0214],[74.3311,33.9724],[74.3275,33.9537],[74.3029,33.96],[74.2801,33.9766],[74.2963,33.9648],[74.2941,33.9842],[74.2679,34.0189],[74.2199,34.0196],[74.213,34.0395],[74.1904,34.0449],[74.1733,34.0582],[74.0798,34.0602],[74.0356,34.0504],[74.0146,34.0571],[74.0023,34.0517],[73.9891,34.0338],[73.9678,34.0326],[73.95,34.0364],[73.9369,34.0563],[73.9232,34.0634],[73.9305,34.0886],[73.9498,34.0994],[73.9518,34.1187],[73.9866,34.1436],[73.9931,34.1581],[74.0121,34.1633],[74.0209,34.1735],[74.0206,34.2527],[74.0146,34.2819],[74.0083,34.2851]]],[[[73.9307,34.4141],[73.9456,34.3974],[73.994,34.2947],[73.9698,34.2975],[73.9536,34.3495],[73.9306,34.3658],[73.8843,34.3561],[73.8674,34.3584],[73.8524,34.3486],[73.8113,34.3663],[73.7773,34.3576],[73.7756,34.3673],[73.8212,34.4084],[73.8745,34.4204],[73.9046,34.4463],[73.9089,34.4577],[73.9307,34.4141]]],[[[73.9583,32.987],[73.9255,32.9861],[73.8965,33.0024],[73.8638,33.0019],[73.8524,33.0051],[73.9037,33.0188],[73.9303,33.0059],[73.942,32.9884],[73.9583,32.987]]],[[[73.816,32.9904],[73.8083,32.9725],[73.7924,32.9656],[73.7801,32.9727],[73.7887,32.9985],[73.816,32.9904]]]]}}]}