{"type":"FeatureCollection","features":[{"type":"Feature","properties":{"label":"Line of Actual Control (military line, not a border)","note":"Approximate, Ladakh sector only. Derived from the edge of the Census 2011 Leh district polygon that adjoins occupied Aksai Chin."},"geometry":{"type":"MultiLineString","coordinates":[[[77.9184,35.4889],[77.9207,35.4942],[77.9299,35.4914],[77.9545,35.4712]],[[77.9726,35.4732],[77.9651,35.4791],[77.9649,35.496],[77.931,35.5173],[77.9376,35.5322],[77.9612,35.5597],[77.967,35.5782]],[[78.0186,35.5866],[78.042,35.5874],[78.0777,35.5492],[78.0875,35.5549]],[[78.0903,35.5563],[78.111,35.5519],[78.1373,35.5389],[78.1473,35.5496],[78.1567,35.552],[78.1523,35.5694]],[[78.1516,35.5726],[78.1641,35.6069]],[[78.1649,35.6091],[78.1643,35.6217]],[[78.1684,35.6301],[78.1792,35.6223],[78.1861,35.624],[78.1985,35.6486],[78.1997,35.6692],[78.2303,35.6519],[78.2551,35.6456],[78.2593,35.6584],[78.2721,35.6689],[78.2675,35.711],[78.2733,35.722],[78.2894,35.7257],[78.3389,35.7206],[78.3861,35.7355],[78.3921,35.7411]],[[78.4069,35.7618],[78.4153,35.7755]],[[78.4297,35.7848],[78.4647,35.7742],[78.5091,35.7727],[78.5213,35.7638],[78.5458,35.7813]],[[78.5619,35.7926],[78.5749,35.7897],[78.5806,35.8081],[78.6109,35.8139],[78.6301,35.8245]],[[78.6648,35.8573],[78.6914,35.8563],[78.7189,35.8683],[78.7688,35.8697],[78.7902,35.8593],[78.8238,35.8558],[78.9399,35.8796],[78.9638,35.8925],[79.0038,35.8568],[79.0216,35.8487],[79.1325,35.8362],[79.157,35.8503],[79.194,35.8869],[79.1978,35.8986],[79.1881,35.9274],[79.1892,35.9433]],[[79.3318,35.9888],[79.3737,35.9941]],[[79.3871,35.9884],[79.4031,35.9188],[79.4129,35.9047],[79.4256,35.8951],[79.4746,35.8895]],[[79.5286,35.8773],[79.5599,35.8618],[79.5943,35.8536]],[[80.3121,35.5511],[80.3139,35.5403]],[[80.3141,35.5393],[80.328,35.4697],[80.318,35.4635],[80.2976,35.4608],[80.2811,35.4409],[80.2835,35.3879],[80.2709,35.3442],[80.2357,35.2766],[80.226,35.22],[80.1835,35.1667],[80.1779,35.1369],[80.1859,35.0632],[80.1748,35.0023],[80.1237,34.8934],[80.1068,34.868],[80.084,34.8488],[80.0731,34.8284],[80.067,34.7906],[80.0728,34.7461],[80.069,34.7148],[80.0445,34.7044],[79.9446,34.6811],[79.9003,34.6913],[79.8607,34.6888],[79.8248,34.6611],[79.8165,34.6434],[79.8043,34.643],[79.7759,34.6276],[79.7726,34.6205],[79.793,34.5896],[79.771,34.5821],[79.759,34.566],[79.7585,34.5547],[79.775,34.552],[79.8092,34.5322],[79.815,34.5089]],[[79.8136,34.5054],[79.8131,34.5035]],[[79.8104,34.4968],[79.8044,34.4959],[79.7973,34.4866],[79.7799,34.4815],[79.6958,34.4778],[79.673,34.4836],[79.662,34.4797],[79.6524,34.4884],[79.6089,34.492],[79.5933,34.5008],[79.5709,34.4867],[79.5085,34.4743],[79.5273,34.4455],[79.5281,34.418],[79.5474,34.41]],[[79.5542,34.3889],[79.5622,34.3635],[79.5596,34.3324],[79.5922,34.2817],[79.5842,34.2384],[79.5692,34.2205],[79.5501,34.2151],[79.5401,34.2055],[79.5256,34.2123],[79.5111,34.2105],[79.4948,34.18],[79.4897,34.1572],[79.4947,34.1359],[79.4649,34.1052]],[[79.4287,34.0892],[79.4203,34.0781],[79.4142,34.0558],[79.4314,34.041]],[[79.4192,34.0144],[79.3988,34.0271],[79.3555,34.0369],[79.306,34.043],[79.2744,34.0394],[79.2477,34.0513],[79.1981,34.0512],[79.1788,34.0721],[79.1712,34.0729],[79.1649,34.0666],[79.1516,34.0681],[79.1438,34.0352],[79.1311,34.0243],[79.1126,34.0197],[79.0841,34.0219],[79.0444,34.0357],[79.0224,34.0509],[79.0148,34.0503],[78.9422,34.0249],[78.9304,34.007]],[[78.9469,33.9151],[78.9438,33.9086],[78.9505,33.903]],[[78.9547,33.8922],[78.9595,33.876]],[[79.0266,33.7232],[79.0256,33.7213]],[[79.0911,33.6545],[79.1008,33.6301]],[[79.0947,33.6159],[79.0654,33.6268],[79.0478,33.6277],[79.0201,33.6235],[78.9899,33.6112],[78.9498,33.6207],[78.9192,33.6336],[78.9145,33.6279],[78.9167,33.6115]],[[78.9154,33.5737],[78.9179,33.5712]],[[78.9396,33.494],[78.9308,33.4655],[78.9333,33.4328],[78.9403,33.4123],[78.9451,33.4096]]]}}]}