{"type":"FeatureCollection","features":[{"type":"Feature","properties":{"sr":3},"geometry":{"type":"Polygon","coordinates":[[[104.604,12.433],[104.62,12.379],[104.61,12.384],[104.606,12.406],[104.596,12.418],[104.534,12.458],[104.496,12.511],[104.442,12.523],[104.408,12.509],[104.353,12.526],[104.288,12.563],[104.212,12.581],[104.149,12.663],[104.151,12.693],[104.133,12.694],[104.14,12.742],[104.12,12.748],[104.117,12.761],[104.127,12.797],[104.111,12.789],[104.092,12.825],[104.079,12.804],[104.023,12.783],[104.01,12.811],[103.986,12.802],[103.972,12.812],[103.956,12.845],[103.941,12.834],[103.924,12.844],[103.9,12.879],[103.9,12.872],[103.889,12.873],[103.859,12.907],[103.853,12.9],[103.859,12.893],[103.853,12.865],[103.841,12.877],[103.851,12.9],[103.846,12.913],[103.81,12.919],[103.799,12.934],[103.777,13.0],[103.75,13.01],[103.76,13.024],[103.778,13.03],[103.778,13.037],[103.727,13.078],[103.714,13.11],[103.689,13.229],[103.705,13.261],[103.72,13.268],[103.782,13.246],[103.826,13.249],[103.84,13.229],[103.852,13.234],[103.887,13.221],[103.902,13.225],[103.985,13.198],[104.011,13.18],[104.074,13.109],[104.127,12.962],[104.133,12.962],[104.169,12.902],[104.173,12.878],[104.209,12.825],[104.226,12.764],[104.239,12.745],[104.278,12.736],[104.391,12.757],[104.424,12.752],[104.456,12.729],[104.472,12.703],[104.476,12.663],[104.449,12.605],[104.484,12.578],[104.49,12.561],[104.469,12.55],[104.442,12.557],[104.447,12.541],[104.463,12.53],[104.492,12.544],[104.5,12.529],[104.517,12.564],[104.525,12.564],[104.521,12.527],[104.579,12.5],[104.594,12.466],[104.525,12.496],[104.534,12.481],[104.567,12.447],[104.604,12.433]]]}},{"type":"Feature","properties":{"sr":4},"geometry":{"type":"Polygon","coordinates":[[[90.384,30.523],[90.338,30.504],[90.325,30.511],[90.338,30.54],[90.307,30.565],[90.298,30.583],[90.315,30.614],[90.278,30.628],[90.278,30.646],[90.304,30.713],[90.278,30.792],[90.272,30.836],[90.285,30.87],[90.315,30.887],[90.401,30.874],[90.428,30.883],[90.497,30.819],[90.583,30.813],[90.623,30.84],[90.682,30.84],[90.658,30.866],[90.67,30.888],[90.706,30.912],[90.743,30.907],[90.75,30.895],[90.779,30.888],[90.804,30.902],[90.833,30.88],[90.845,30.887],[90.887,30.861],[90.884,30.919],[90.895,30.922],[90.929,30.895],[90.939,30.932],[90.968,30.936],[90.998,30.926],[91.025,30.886],[91.03,30.862],[91.008,30.8],[90.995,30.788],[90.846,30.785],[90.864,30.714],[90.799,30.658],[90.633,30.593],[90.555,30.579],[90.523,30.559],[90.512,30.568],[90.499,30.566],[90.435,30.546],[90.399,30.542],[90.384,30.523]]]}},{"type":"Feature","properties":{"sr":4},"geometry":{"type":"Polygon","coordinates":[[[87.417,41.839],[87.31,41.866],[87.316,41.873],[87.296,41.893],[87.281,41.884],[87.134,41.922],[87.05,41.912],[86.915,41.876],[86.844,41.866],[86.787,41.835],[86.753,41.825],[86.737,41.834],[86.698,41.833],[86.68,41.845],[86.734,41.859],[86.733,41.877],[86.721,41.89],[86.745,41.925],[86.763,41.973],[86.775,41.983],[86.844,42.003],[86.851,42.034],[86.83,42.06],[86.838,42.069],[86.81,42.092],[86.814,42.107],[86.803,42.12],[86.817,42.134],[86.858,42.115],[86.934,42.11],[87.074,42.061],[87.187,42.052],[87.337,42.024],[87.354,42.003],[87.351,41.914],[87.377,41.913],[87.398,41.881],[87.427,41.859],[87.434,41.849],[87.417,41.839]]]}},{"type":"Feature","properties":{"sr":4},"geometry":{"type":"Polygon","coordinates":[[[89.326,31.827],[89.345,31.806],[89.331,31.783],[89.297,31.778],[89.27,31.792],[89.277,31.827],[89.248,31.803],[89.235,31.676],[89.188,31.622],[89.158,31.607],[89.126,31.559],[89.088,31.579],[89.064,31.611],[89.051,31.615],[88.975,31.6],[88.941,31.623],[88.925,31.64],[88.924,31.652],[88.96,31.703],[88.98,31.71],[88.938,31.736],[88.916,31.741],[88.894,31.731],[88.841,31.736],[88.78,31.697],[88.684,31.711],[88.654,31.724],[88.654,31.718],[88.647,31.757],[88.65,31.786],[88.612,31.779],[88.602,31.787],[88.602,31.81],[88.559,31.819],[88.557,31.841],[88.571,31.869],[88.605,31.882],[88.731,31.883],[88.749,31.871],[88.737,31.836],[88.749,31.819],[88.767,31.811],[88.807,31.814],[88.825,31.819],[88.805,31.833],[88.798,31.849],[88.805,31.867],[88.825,31.882],[88.846,31.874],[89.01,31.937],[89.03,31.917],[89.137,31.929],[89.155,31.924],[89.191,31.896],[89.286,31.873],[89.311,31.855],[89.326,31.827]]]}},{"type":"Feature","properties":{"sr":5},"geometry":{"type":"Polygon","coordinates":[[[89.67,37.5],[89.599,37.499],[89.613,37.492],[89.613,37.484],[89.579,37.492],[89.55,37.475],[89.44,37.476],[89.4,37.484],[89.282,37.532],[89.165,37.526],[89.077,37.564],[89.071,37.588],[89.084,37.603],[89.108,37.607],[89.157,37.602],[89.195,37.588],[89.25,37.602],[89.342,37.642],[89.544,37.626],[89.654,37.583],[89.65,37.55],[89.639,37.547],[89.619,37.56],[89.609,37.557],[89.611,37.542],[89.674,37.512],[89.67,37.5]]]}},{"type":"Feature","properties":{"sr":5},"geometry":{"type":"Polygon","coordinates":[[[97.901,34.832],[97.902,34.822],[97.85,34.828],[97.857,34.808],[97.845,34.807],[97.78,34.83],[97.761,34.849],[97.755,34.817],[97.735,34.808],[97.712,34.818],[97.698,34.842],[97.679,34.815],[97.697,34.8],[97.688,34.786],[97.605,34.785],[97.581,34.796],[97.566,34.815],[97.545,34.889],[97.592,34.946],[97.612,34.958],[97.672,34.965],[97.633,34.971],[97.624,34.986],[97.644,35.014],[97.635,35.026],[97.65,35.042],[97.73,35.086],[97.768,35.088],[97.764,35.069],[97.771,35.051],[97.808,35.01],[97.789,34.979],[97.8,34.915],[97.808,34.904],[97.855,34.887],[97.901,34.832]]]}},{"type":"Feature","properties":{"sr":5},"geometry":{"type":"Polygon","coordinates":[[[99.144,2.421],[99.153,2.408],[99.142,2.382],[99.131,2.374],[99.118,2.388],[99.077,2.351],[99.059,2.346],[99.026,2.358],[98.976,2.34],[98.925,2.353],[98.874,2.346],[98.861,2.354],[98.827,2.336],[98.823,2.354],[98.83,2.383],[98.811,2.395],[98.788,2.449],[98.709,2.535],[98.679,2.552],[98.67,2.585],[98.676,2.601],[98.689,2.607],[98.703,2.598],[98.741,2.532],[98.805,2.492],[98.878,2.431],[98.899,2.429],[98.977,2.463],[98.979,2.48],[98.966,2.51],[98.902,2.584],[98.845,2.677],[98.796,2.73],[98.766,2.748],[98.733,2.755],[98.701,2.744],[98.679,2.71],[98.676,2.627],[98.628,2.652],[98.618,2.662],[98.592,2.736],[98.569,2.745],[98.561,2.763],[98.525,2.801],[98.514,2.888],[98.651,2.881],[98.726,2.854],[98.783,2.812],[98.819,2.766],[98.899,2.717],[98.911,2.7],[98.926,2.645],[98.917,2.621],[98.953,2.572],[99.036,2.49],[99.049,2.397],[99.066,2.399],[99.104,2.422],[99.144,2.421]]]}},{"type":"Feature","properties":{"sr":5},"geometry":{"type":"Polygon","coordinates":[[[97.413,35.0],[97.487,34.984],[97.486,34.967],[97.472,34.956],[97.452,34.965],[97.446,34.937],[97.396,34.909],[97.379,34.873],[97.304,34.829],[97.248,34.836],[97.069,34.935],[97.056,34.998],[97.074,35.012],[97.086,35.01],[97.096,34.986],[97.123,35.028],[97.163,35.013],[97.25,35.014],[97.317,35.034],[97.413,35.0]]]}},{"type":"Feature","properties":{"sr":5},"geometry":{"type":"Polygon","coordinates":[[[81.307,30.683],[81.328,30.642],[81.316,30.619],[81.299,30.608],[81.252,30.607],[81.236,30.6],[81.218,30.621],[81.183,30.615],[81.144,30.629],[81.125,30.666],[81.109,30.676],[81.135,30.689],[81.16,30.676],[81.184,30.693],[81.177,30.71],[81.19,30.724],[81.204,30.783],[81.203,30.813],[81.19,30.847],[81.224,30.857],[81.247,30.844],[81.273,30.842],[81.296,30.822],[81.3,30.799],[81.292,30.788],[81.26,30.785],[81.243,30.767],[81.241,30.746],[81.263,30.706],[81.307,30.683]]]}},{"type":"Feature","properties":{"sr":5},"geometry":{"type":"Polygon","coordinates":[[[81.603,30.723],[81.603,30.69],[81.574,30.656],[81.451,30.566],[81.445,30.565],[81.424,30.566],[81.43,30.566],[81.377,30.592],[81.362,30.614],[81.379,30.641],[81.369,30.724],[81.376,30.764],[81.407,30.789],[81.45,30.788],[81.534,30.764],[81.578,30.749],[81.603,30.723]]]}},{"type":"Feature","properties":{"sr":5},"geometry":{"type":"Polygon","coordinates":[[[83.316,31.444],[83.26,31.471],[83.253,31.459],[83.178,31.464],[83.144,31.45],[83.097,31.491],[83.081,31.519],[83.043,31.537],[83.034,31.535],[83.028,31.519],[82.98,31.525],[82.959,31.501],[82.94,31.5],[82.892,31.514],[82.866,31.534],[82.833,31.545],[82.822,31.559],[82.823,31.574],[82.839,31.58],[82.94,31.581],[82.972,31.573],[82.954,31.588],[82.942,31.618],[82.918,31.621],[82.928,31.635],[82.942,31.642],[82.98,31.641],[83.035,31.62],[83.051,31.644],[83.073,31.655],[83.116,31.656],[83.125,31.642],[83.12,31.632],[83.089,31.606],[83.101,31.601],[83.131,31.615],[83.141,31.587],[83.201,31.574],[83.217,31.553],[83.247,31.546],[83.306,31.503],[83.324,31.475],[83.377,31.436],[83.316,31.444]]]}},{"type":"Feature","properties":{"sr":5},"geometry":{"type":"Polygon","coordinates":[[[86.779,31.181],[86.796,31.142],[86.774,31.123],[86.687,31.121],[86.635,31.099],[86.614,31.079],[86.597,31.052],[86.609,31.026],[86.607,31.002],[86.56,30.936],[86.552,30.914],[86.522,30.882],[86.529,30.837],[86.525,30.824],[86.451,30.769],[86.43,30.771],[86.413,30.785],[86.376,30.871],[86.416,30.878],[86.427,30.893],[86.454,31.0],[86.519,31.06],[86.571,31.09],[86.615,31.211],[86.632,31.296],[86.626,31.34],[86.648,31.369],[86.69,31.368],[86.734,31.347],[86.762,31.313],[86.779,31.181]]]}},{"type":"Feature","properties":{"sr":5},"geometry":{"type":"Polygon","coordinates":[[[91.002,28.876],[90.915,28.94],[90.899,28.936],[90.894,28.953],[90.887,28.953],[90.878,28.927],[90.853,28.912],[90.851,28.926],[90.86,28.94],[90.811,28.926],[90.805,28.953],[90.775,28.925],[90.758,28.923],[90.75,28.936],[90.764,28.956],[90.729,28.974],[90.723,28.953],[90.764,28.897],[90.766,28.872],[90.729,28.857],[90.734,28.874],[90.702,28.906],[90.657,28.906],[90.648,28.892],[90.682,28.888],[90.68,28.879],[90.604,28.822],[90.593,28.786],[90.507,28.782],[90.497,28.792],[90.504,28.823],[90.456,28.846],[90.437,28.894],[90.452,28.898],[90.49,28.884],[90.497,28.871],[90.49,28.856],[90.497,28.851],[90.511,28.854],[90.52,28.871],[90.529,28.868],[90.525,28.813],[90.552,28.81],[90.544,28.823],[90.566,28.837],[90.554,28.845],[90.559,28.876],[90.552,28.892],[90.573,28.892],[90.587,28.908],[90.641,28.92],[90.64,28.926],[90.599,28.94],[90.6,28.959],[90.623,28.967],[90.662,28.966],[90.695,28.982],[90.691,29.022],[90.648,29.076],[90.666,29.087],[90.657,29.14],[90.629,29.169],[90.572,29.186],[90.546,29.182],[90.436,29.131],[90.394,29.097],[90.397,29.079],[90.391,29.078],[90.381,29.1],[90.361,29.112],[90.366,29.125],[90.381,29.112],[90.424,29.147],[90.548,29.2],[90.607,29.195],[90.661,29.179],[90.741,29.142],[90.723,29.131],[90.737,29.111],[90.729,29.104],[90.716,29.111],[90.72,29.057],[90.754,29.029],[90.791,29.035],[90.774,29.016],[90.743,29.016],[90.759,29.0],[90.832,28.967],[90.832,28.974],[90.818,28.981],[90.846,29.016],[90.839,29.016],[90.846,29.029],[90.862,29.019],[90.933,29.028],[90.945,29.024],[90.942,29.016],[90.963,28.994],[91.013,28.968],[91.023,28.957],[91.018,28.947],[91.005,28.945],[90.97,28.96],[90.953,28.953],[90.952,28.944],[91.042,28.875],[91.002,28.876]]]}},{"type":"Feature","properties":{"sr":5},"geometry":{"type":"Polygon","coordinates":[[[91.298,35.609],[91.339,35.58],[91.271,35.565],[91.299,35.539],[91.3,35.529],[91.233,35.527],[91.16,35.551],[91.072,35.558],[91.004,35.6],[90.942,35.615],[90.932,35.631],[90.935,35.648],[90.957,35.655],[90.997,35.642],[91.012,35.628],[91.028,35.649],[91.094,35.647],[91.15,35.627],[91.223,35.635],[91.217,35.647],[91.223,35.662],[91.283,35.63],[91.298,35.609]]]}},{"type":"Feature","properties":{"sr":5},"geometry":{"type":"Polygon","coordinates":[[[85.9,30.945],[85.899,30.922],[85.886,30.914],[85.873,30.926],[85.878,30.936],[85.842,30.931],[85.856,30.914],[85.862,30.856],[85.844,30.777],[85.816,30.748],[85.761,30.758],[85.771,30.771],[85.789,30.772],[85.789,30.779],[85.772,30.782],[85.773,30.796],[85.792,30.8],[85.81,30.819],[85.786,30.818],[85.762,30.831],[85.734,30.874],[85.719,30.868],[85.675,30.882],[85.611,30.861],[85.598,30.871],[85.574,30.82],[85.522,30.847],[85.413,30.87],[85.378,30.889],[85.331,30.957],[85.333,30.976],[85.354,31.008],[85.405,31.046],[85.4,31.07],[85.412,31.081],[85.447,31.073],[85.497,31.042],[85.537,31.034],[85.568,31.015],[85.629,30.999],[85.638,31.005],[85.628,31.027],[85.652,31.039],[85.675,31.019],[85.685,31.038],[85.747,31.027],[85.803,30.997],[85.881,30.984],[85.9,30.945]]]}},{"type":"Feature","properties":{"sr":6},"geometry":{"type":"Polygon","coordinates":[[[90.291,33.314],[90.213,33.35],[90.16,33.39],[90.124,33.358],[90.086,33.362],[89.996,33.403],[90.017,33.434],[90.014,33.446],[89.996,33.458],[89.995,33.475],[90.053,33.454],[90.138,33.404],[90.181,33.397],[90.207,33.403],[90.294,33.458],[90.303,33.48],[90.27,33.602],[90.287,33.599],[90.293,33.613],[90.298,33.725],[90.319,33.681],[90.342,33.664],[90.325,33.657],[90.344,33.609],[90.356,33.602],[90.378,33.556],[90.402,33.531],[90.408,33.42],[90.353,33.41],[90.34,33.376],[90.312,33.362],[90.311,33.319],[90.291,33.314]]]}},{"type":"Feature","properties":{"sr":6},"geometry":{"type":"Polygon","coordinates":[[[89.973,33.492],[89.973,33.472],[89.949,33.458],[89.947,33.386],[89.902,33.358],[89.87,33.293],[89.832,33.273],[89.848,33.26],[89.843,33.247],[89.825,33.243],[89.794,33.266],[89.812,33.28],[89.784,33.314],[89.778,33.348],[89.777,33.383],[89.789,33.412],[89.818,33.423],[89.729,33.437],[89.661,33.492],[89.668,33.499],[89.739,33.465],[89.789,33.453],[89.838,33.47],[89.847,33.509],[89.863,33.519],[89.93,33.525],[89.949,33.519],[89.973,33.492]]]}},{"type":"Feature","properties":{"sr":6},"geometry":{"type":"Polygon","coordinates":[[[75.914,32.103],[75.919,32.127],[75.946,32.135],[75.931,32.166],[75.937,32.178],[75.974,32.168],[76.006,32.133],[76.025,32.158],[76.042,32.167],[76.039,32.115],[76.046,32.1],[76.071,32.101],[76.08,32.086],[76.111,32.081],[76.105,32.048],[76.122,32.018],[76.173,32.014],[76.157,31.98],[76.197,31.906],[76.198,31.874],[76.182,31.869],[76.155,31.887],[76.124,31.873],[76.109,31.894],[76.083,31.899],[76.071,31.924],[75.963,31.961],[75.935,31.965],[75.954,32.0],[75.958,32.037],[75.931,32.056],[75.937,32.089],[75.914,32.103]]]}},{"type":"Feature","properties":{"sr":6},"geometry":{"type":"Polygon","coordinates":[[[91.534,32.094],[91.532,32.047],[91.511,31.971],[91.518,31.95],[91.463,31.929],[91.464,31.952],[91.431,31.981],[91.422,32.073],[91.456,32.119],[91.484,32.135],[91.511,32.136],[91.527,32.119],[91.534,32.094]]]}},{"type":"Feature","properties":{"sr":6},"geometry":{"type":"Polygon","coordinates":[[[87.605,31.957],[87.617,31.922],[87.611,31.904],[87.555,31.851],[87.447,31.833],[87.417,31.844],[87.409,31.877],[87.419,31.913],[87.5,31.962],[87.539,31.979],[87.605,31.957]]]}},{"type":"Feature","properties":{"sr":6},"geometry":{"type":"Polygon","coordinates":[[[78.98,33.736],[78.985,33.721],[78.97,33.712],[78.862,33.689],[78.824,33.699],[78.758,33.67],[78.728,33.678],[78.656,33.738],[78.591,33.827],[78.486,33.893],[78.457,33.921],[78.436,33.951],[78.436,33.979],[78.448,33.968],[78.474,33.979],[78.497,33.978],[78.511,33.938],[78.545,33.896],[78.552,33.908],[78.559,33.906],[78.577,33.886],[78.611,33.87],[78.618,33.846],[78.68,33.783],[78.759,33.729],[78.786,33.725],[78.813,33.746],[78.856,33.73],[78.896,33.746],[78.913,33.734],[78.98,33.736]]]}},{"type":"Feature","properties":{"sr":8},"geometry":{"type":"Polygon","coordinates":[[[74.661,34.4],[74.663,34.375],[74.653,34.369],[74.605,34.39],[74.587,34.377],[74.571,34.382],[74.564,34.366],[74.575,34.332],[74.571,34.314],[74.557,34.301],[74.525,34.306],[74.516,34.321],[74.523,34.39],[74.541,34.414],[74.57,34.42],[74.661,34.4]]]}},{"type":"Feature","properties":{"sr":8},"geometry":{"type":"Polygon","coordinates":[[[73.866,33.15],[73.87,33.128],[73.864,33.123],[73.823,33.132],[73.818,33.15],[73.728,33.191],[73.704,33.21],[73.702,33.185],[73.715,33.156],[73.65,33.132],[73.639,33.15],[73.652,33.172],[73.647,33.194],[73.619,33.211],[73.612,33.231],[73.579,33.228],[73.577,33.239],[73.598,33.246],[73.591,33.304],[73.598,33.321],[73.614,33.297],[73.605,33.273],[73.637,33.234],[73.659,33.221],[73.677,33.231],[73.68,33.273],[73.699,33.294],[73.694,33.307],[73.749,33.321],[73.753,33.298],[73.742,33.271],[73.701,33.231],[73.818,33.205],[73.811,33.181],[73.866,33.15]]]}},{"type":"Feature","properties":{"sr":9},"geometry":{"type":"Polygon","coordinates":[[[81.231,35.07],[81.244,35.051],[81.225,35.015],[81.147,35.007],[81.102,35.021],[80.984,34.982],[80.945,34.988],[80.929,34.998],[80.923,35.013],[80.938,35.054],[80.952,35.072],[81.018,35.087],[81.075,35.081],[81.087,35.087],[81.094,35.106],[81.112,35.094],[81.176,35.103],[81.186,35.091],[81.231,35.07]]]}},{"type":"Feature","properties":{"sr":9},"geometry":{"type":"Polygon","coordinates":[[[79.881,35.277],[79.91,35.223],[79.905,35.192],[79.889,35.166],[79.868,35.154],[79.806,35.171],[79.799,35.195],[79.812,35.215],[79.749,35.259],[79.765,35.284],[79.835,35.3],[79.876,35.296],[79.902,35.284],[79.881,35.277]]]}},{"type":"Feature","properties":{"sr":5},"geometry":{"type":"Polygon","coordinates":[[[90.249,28.625],[90.358,28.626],[90.386,28.616],[90.405,28.628],[90.458,28.62],[90.527,28.572],[90.534,28.531],[90.524,28.522],[90.472,28.519],[90.446,28.532],[90.415,28.513],[90.39,28.521],[90.396,28.535],[90.382,28.535],[90.37,28.546],[90.355,28.537],[90.342,28.553],[90.312,28.533],[90.283,28.543],[90.233,28.594],[90.241,28.621],[90.249,28.625]]]}},{"type":"Feature","properties":{"sr":5},"geometry":{"type":"Polygon","coordinates":[[[102.795,18.552],[102.961,18.539],[102.779,18.524],[102.723,18.527],[102.693,18.505],[102.684,18.469],[102.658,18.433],[102.607,18.465],[102.579,18.506],[102.552,18.609],[102.532,18.63],[102.531,18.661],[102.513,18.717],[102.484,18.751],[102.484,18.766],[102.49,18.771],[102.512,18.758],[102.516,18.771],[102.523,18.772],[102.537,18.75],[102.546,18.754],[102.577,18.725],[102.577,18.68],[102.597,18.683],[102.584,18.671],[102.583,18.659],[102.591,18.653],[102.606,18.658],[102.617,18.699],[102.627,18.703],[102.637,18.696],[102.647,18.652],[102.619,18.641],[102.62,18.629],[102.638,18.611],[102.66,18.62],[102.696,18.656],[102.781,18.713],[102.754,18.651],[102.718,18.631],[102.72,18.611],[102.782,18.576],[102.778,18.56],[102.795,18.552]]]}},{"type":"Feature","properties":{"sr":5},"geometry":{"type":"Polygon","coordinates":[[[73.275,41.787],[73.31,41.77],[73.29,41.756],[73.249,41.756],[73.174,41.735],[73.044,41.784],[72.967,41.762],[72.9,41.73],[72.879,41.729],[72.817,41.756],[72.777,41.755],[72.75,41.739],[72.708,41.695],[72.645,41.665],[72.617,41.673],[72.591,41.702],[72.603,41.707],[72.632,41.688],[72.673,41.702],[72.671,41.719],[72.711,41.742],[72.725,41.771],[72.742,41.784],[72.704,41.811],[72.652,41.866],[72.625,41.873],[72.615,41.897],[72.591,41.921],[72.608,41.928],[72.7,41.902],[72.85,41.885],[72.885,41.888],[72.919,41.901],[72.954,41.859],[72.972,41.871],[72.997,41.861],[73.072,41.852],[73.073,41.821],[73.087,41.807],[73.275,41.787]]]}},{"type":"Feature","properties":{"sr":6},"geometry":{"type":"Polygon","coordinates":[[[68.451,41.119],[68.456,41.107],[68.426,41.094],[68.369,41.05],[68.324,41.057],[68.273,41.016],[68.231,41.039],[68.192,41.037],[68.117,41.067],[68.095,41.065],[68.082,41.043],[68.059,41.055],[68.034,41.043],[68.021,41.059],[68.003,41.116],[67.949,41.172],[67.931,41.215],[67.91,41.222],[67.912,41.242],[67.928,41.25],[68.029,41.242],[68.092,41.175],[68.158,41.208],[68.24,41.208],[68.281,41.157],[68.335,41.133],[68.384,41.138],[68.451,41.119]]]}},{"type":"Feature","properties":{"sr":7},"geometry":{"type":"Polygon","coordinates":[[[73.019,34.078],[73.02,34.063],[72.914,34.012],[72.88,34.031],[72.865,34.075],[72.834,34.097],[72.793,34.102],[72.731,34.067],[72.697,34.096],[72.689,34.115],[72.78,34.151],[72.793,34.18],[72.813,34.19],[72.816,34.225],[72.81,34.246],[72.834,34.293],[72.837,34.345],[72.817,34.39],[72.81,34.445],[72.83,34.473],[72.831,34.487],[72.768,34.506],[72.768,34.52],[72.796,34.565],[72.775,34.602],[72.782,34.623],[72.796,34.618],[72.821,34.573],[72.8,34.512],[72.851,34.495],[72.838,34.392],[72.859,34.373],[72.879,34.308],[72.863,34.278],[72.857,34.243],[72.863,34.209],[72.879,34.178],[72.869,34.157],[72.877,34.139],[72.894,34.129],[72.945,34.149],[72.965,34.148],[72.981,34.137],[72.944,34.101],[72.947,34.088],[72.964,34.078],[73.004,34.083],[73.019,34.078]]]}},{"type":"Feature","properties":{"sr":2},"geometry":{"type":"Polygon","coordinates":[[[78.306,42.603],[78.328,42.595],[78.32,42.572],[78.3,42.563],[78.151,42.574],[78.108,42.551],[78.056,42.493],[78.029,42.475],[77.901,42.458],[77.829,42.435],[77.812,42.421],[77.823,42.403],[77.893,42.392],[77.915,42.374],[77.879,42.373],[77.852,42.361],[77.792,42.294],[77.687,42.215],[77.657,42.203],[77.583,42.195],[77.481,42.162],[77.463,42.181],[77.427,42.17],[77.39,42.17],[77.289,42.181],[77.175,42.166],[77.137,42.153],[77.114,42.161],[77.048,42.161],[76.961,42.187],[76.935,42.167],[76.927,42.184],[76.907,42.198],[76.82,42.22],[76.755,42.262],[76.706,42.251],[76.676,42.267],[76.562,42.28],[76.397,42.346],[76.372,42.347],[76.314,42.316],[76.27,42.318],[76.24,42.337],[76.233,42.364],[76.208,42.393],[76.223,42.4],[76.208,42.407],[76.215,42.407],[76.202,42.419],[76.196,42.44],[76.202,42.46],[76.226,42.469],[76.305,42.482],[76.456,42.468],[76.497,42.51],[76.6,42.514],[76.675,42.565],[76.982,42.614],[77.014,42.606],[77.058,42.634],[77.084,42.64],[77.174,42.653],[77.22,42.649],[77.35,42.682],[77.436,42.653],[77.528,42.647],[77.579,42.676],[77.784,42.723],[77.833,42.716],[77.917,42.727],[77.983,42.713],[78.104,42.726],[78.137,42.74],[78.306,42.743],[78.306,42.736],[78.25,42.719],[78.202,42.721],[78.169,42.675],[78.121,42.668],[78.082,42.623],[78.111,42.6],[78.306,42.603]]]}},{"type":"Feature","properties":{"sr":3},"geometry":{"type":"Polygon","coordinates":[[[100.752,36.825],[100.766,36.804],[100.762,36.781],[100.743,36.773],[100.702,36.776],[100.693,36.757],[100.734,36.706],[100.742,36.684],[100.713,36.566],[100.704,36.555],[100.649,36.542],[100.498,36.578],[100.459,36.6],[100.445,36.623],[100.481,36.638],[100.481,36.644],[100.44,36.644],[100.41,36.632],[100.395,36.638],[100.385,36.666],[100.33,36.651],[100.289,36.658],[100.259,36.646],[100.134,36.624],[99.981,36.658],[99.926,36.689],[99.908,36.72],[99.811,36.713],[99.798,36.724],[99.782,36.761],[99.791,36.774],[99.78,36.811],[99.702,36.842],[99.683,36.866],[99.624,36.898],[99.618,36.918],[99.624,36.939],[99.662,36.967],[99.782,36.938],[99.821,36.951],[99.842,36.981],[99.833,37.038],[99.781,37.082],[99.755,37.142],[99.762,37.165],[99.797,37.185],[99.984,37.228],[100.043,37.199],[100.079,37.191],[100.183,37.193],[100.216,37.18],[100.249,37.198],[100.275,37.196],[100.347,37.118],[100.47,37.017],[100.578,36.87],[100.639,36.863],[100.68,36.849],[100.704,36.863],[100.752,36.825]]]}},{"type":"Feature","properties":{"sr":4},"geometry":{"type":"Polygon","coordinates":[[[57.884,41.817],[57.886,41.807],[57.855,41.776],[57.854,41.683],[57.801,41.668],[57.708,41.659],[57.688,41.648],[57.664,41.616],[57.618,41.595],[57.559,41.608],[57.494,41.576],[57.454,41.597],[57.436,41.599],[57.388,41.555],[57.352,41.54],[57.242,41.613],[57.229,41.657],[57.237,41.692],[57.232,41.707],[57.162,41.75],[57.137,41.797],[57.118,41.794],[57.079,41.721],[57.075,41.667],[57.067,41.665],[57.046,41.694],[57.033,41.739],[57.058,41.797],[57.072,41.947],[57.197,42.24],[57.229,42.288],[57.265,42.314],[57.365,42.345],[57.407,42.344],[57.453,42.304],[57.518,42.293],[57.57,42.271],[57.614,42.24],[57.637,42.195],[57.645,42.122],[57.605,42.114],[57.596,42.095],[57.598,42.07],[57.622,42.053],[57.665,42.042],[57.727,42.009],[57.724,41.984],[57.684,41.965],[57.678,41.955],[57.68,41.903],[57.762,41.89],[57.884,41.817]]]}}]}