{"type":"FeatureCollection","features":[{"type":"Feature","properties":{"sr":0},"geometry":{"type":"Polygon","coordinates":[[[96.615,5.22],[96.843,5.274],[97.19,5.207],[97.451,5.236],[97.547,5.206],[97.908,4.88],[98.0,4.662],[98.248,4.415],[98.273,4.322],[98.241,4.195],[98.307,4.093],[98.659,3.928],[98.778,3.759],[99.151,3.581],[99.732,3.183],[99.907,2.988],[100.127,2.648],[100.524,2.189],[100.685,2.12],[100.888,1.948],[100.877,2.051],[100.817,2.14],[100.828,2.243],[100.936,2.295],[101.046,2.257],[101.301,2.012],[101.405,1.757],[101.477,1.693],[101.785,1.621],[102.02,1.442],[102.157,1.259],[102.239,0.99],[102.39,0.842],[102.566,0.749],[102.849,0.715],[103.032,0.579],[103.067,0.492],[103.008,0.415],[102.55,0.216],[102.896,0.279],[103.339,0.514],[103.479,0.48],[103.673,0.289],[103.787,0.047],[103.429,-0.192],[103.412,-0.24],[103.444,-0.272],[103.405,-0.362],[103.495,-0.418],[103.509,-0.466],[103.431,-0.534],[103.439,-0.576],[103.533,-0.755],[103.721,-0.887],[104.199,-1.054],[104.361,-1.038],[104.519,-1.699],[104.516,-1.819],[104.569,-1.922],[104.704,-2.0],[100.853,-2.0],[100.855,-1.934],[100.487,-1.299],[100.289,-0.799],[99.86,-0.314],[99.67,0.045],[99.335,0.209],[99.159,0.352],[98.796,1.495],[98.595,1.865],[98.087,2.195],[97.795,2.283],[97.701,2.359],[97.591,2.847],[97.391,2.975],[96.969,3.575],[96.801,3.709],[96.525,3.767],[96.445,3.816],[96.23,4.073],[95.988,4.263],[95.579,4.662],[95.432,4.865],[95.207,5.284],[95.247,5.411],[95.228,5.565],[95.396,5.629],[95.629,5.609],[95.841,5.515],[96.133,5.294],[96.615,5.22]]]}},{"type":"Feature","properties":{"sr":0},"geometry":{"type":"Polygon","coordinates":[[[79.982,9.813],[80.253,9.796],[80.376,9.642],[80.711,9.366],[80.935,8.971],[81.016,8.933],[81.198,8.662],[81.227,8.506],[81.373,8.431],[81.422,8.148],[81.665,7.782],[81.683,7.684],[81.832,7.428],[81.874,7.288],[81.861,6.901],[81.768,6.614],[81.637,6.425],[81.306,6.204],[80.724,5.979],[80.496,5.949],[80.267,6.01],[80.095,6.153],[79.859,6.829],[79.713,8.182],[79.75,8.294],[79.75,8.049],[79.783,8.018],[79.851,8.412],[79.942,8.692],[79.929,8.899],[80.065,9.096],[80.1,9.21],[80.118,9.327],[80.086,9.578],[80.318,9.465],[80.428,9.481],[80.385,9.549],[80.258,9.611],[80.046,9.65],[79.979,9.699],[79.954,9.742],[79.982,9.813]]]}},{"type":"Feature","properties":{"sr":0},"geometry":{"type":"Polygon","coordinates":[[[101.268,2.97],[101.274,3.033],[101.311,3.067],[101.319,2.988],[101.268,2.97]]]}},{"type":"Feature","properties":{"sr":0},"geometry":{"type":"Polygon","coordinates":[[[58.659,20.204],[58.641,20.337],[58.788,20.497],[58.884,20.681],[58.951,20.516],[58.835,20.424],[58.772,20.267],[58.659,20.204]]]}},{"type":"Feature","properties":{"sr":0},"geometry":{"type":"Polygon","coordinates":[[[56.095,26.801],[55.954,26.701],[55.848,26.731],[55.424,26.583],[55.312,26.593],[55.295,26.639],[55.763,26.812],[55.785,26.857],[55.758,26.948],[55.907,26.91],[56.074,26.983],[56.214,27.003],[56.279,26.952],[56.188,26.921],[56.095,26.801]]]}},{"type":"Feature","properties":{"sr":0},"geometry":{"type":"Polygon","coordinates":[[[101.762,1.997],[101.774,1.943],[101.719,1.789],[101.603,1.716],[101.468,1.759],[101.403,1.901],[101.41,2.022],[101.45,2.068],[101.545,2.061],[101.641,2.127],[101.762,1.997]]]}},{"type":"Feature","properties":{"sr":0},"geometry":{"type":"Polygon","coordinates":[[[102.381,0.96],[102.255,1.147],[102.229,1.348],[102.256,1.397],[102.359,1.346],[102.443,1.234],[102.427,0.99],[102.381,0.96]]]}},{"type":"Feature","properties":{"sr":0},"geometry":{"type":"Polygon","coordinates":[[[102.499,1.331],[102.274,1.453],[102.079,1.499],[102.021,1.558],[102.024,1.608],[102.042,1.625],[102.47,1.51],[102.499,1.331]]]}},{"type":"Feature","properties":{"sr":0},"geometry":{"type":"Polygon","coordinates":[[[103.009,0.708],[102.49,0.857],[102.454,0.89],[102.507,1.089],[102.549,1.13],[102.726,0.989],[103.002,0.859],[103.028,0.747],[103.009,0.708]]]}},{"type":"Feature","properties":{"sr":0},"geometry":{"type":"Polygon","coordinates":[[[103.166,0.87],[103.087,0.848],[102.886,0.997],[102.702,1.054],[102.726,1.159],[102.79,1.165],[102.999,1.068],[103.166,0.87]]]}},{"type":"Feature","properties":{"sr":0},"geometry":{"type":"Polygon","coordinates":[[[103.284,0.542],[103.14,0.549],[103.153,0.643],[103.187,0.7],[103.238,0.699],[103.295,0.614],[103.284,0.542]]]}},{"type":"Feature","properties":{"sr":0},"geometry":{"type":"Polygon","coordinates":[[[103.43,0.993],[103.363,1.007],[103.315,1.071],[103.38,1.134],[103.43,0.993]]]}},{"type":"Feature","properties":{"sr":0},"geometry":{"type":"Polygon","coordinates":[[[103.43,0.651],[103.344,0.778],[103.386,0.87],[103.497,0.723],[103.43,0.651]]]}},{"type":"Feature","properties":{"sr":0},"geometry":{"type":"Polygon","coordinates":[[[103.834,0.772],[103.742,0.83],[103.752,0.891],[103.807,0.846],[103.834,0.772]]]}},{"type":"Feature","properties":{"sr":0},"geometry":{"type":"Polygon","coordinates":[[[104.088,1.137],[104.14,1.166],[104.066,0.99],[103.964,1.013],[103.932,1.071],[103.955,1.137],[104.0,1.137],[104.025,1.181],[104.088,1.137]]]}},{"type":"Feature","properties":{"sr":0},"geometry":{"type":"Polygon","coordinates":[[[104.591,1.141],[104.648,1.105],[104.663,1.05],[104.653,0.961],[104.575,0.832],[104.504,0.853],[104.481,0.933],[104.429,0.956],[104.462,0.996],[104.439,1.05],[104.252,1.015],[104.25,1.103],[104.362,1.181],[104.5,1.18],[104.585,1.216],[104.591,1.141]]]}},{"type":"Feature","properties":{"sr":0},"geometry":{"type":"Polygon","coordinates":[[[104.177,0.805],[104.098,0.896],[104.123,0.944],[104.227,0.88],[104.239,0.834],[104.177,0.805]]]}},{"type":"Feature","properties":{"sr":0},"geometry":{"type":"Polygon","coordinates":[[[104.698,0.035],[104.604,0.095],[104.499,0.232],[104.544,0.223],[104.698,0.035]]]}},{"type":"Feature","properties":{"sr":0},"geometry":{"type":"Polygon","coordinates":[[[104.808,-0.192],[104.843,-0.141],[105.0,-0.283],[104.914,-0.323],[104.702,-0.209],[104.567,-0.246],[104.447,-0.189],[104.543,0.018],[104.636,-0.018],[104.653,-0.076],[104.808,-0.192]]]}},{"type":"Feature","properties":{"sr":0},"geometry":{"type":"Polygon","coordinates":[[[104.474,-0.335],[104.59,-0.467],[104.507,-0.597],[104.414,-0.584],[104.363,-0.659],[104.33,-0.539],[104.257,-0.463],[104.302,-0.386],[104.364,-0.403],[104.474,-0.335]]]}},{"type":"Feature","properties":{"sr":0},"geometry":{"type":"Polygon","coordinates":[[[103.606,-0.383],[103.461,-0.358],[103.549,-0.228],[103.724,-0.277],[103.764,-0.318],[103.606,-0.383]]]}},{"type":"Feature","properties":{"sr":0},"geometry":{"type":"Polygon","coordinates":[[[97.698,1.184],[97.786,1.146],[97.932,0.974],[97.876,0.628],[97.82,0.564],[97.684,0.596],[97.604,0.834],[97.461,0.941],[97.405,0.947],[97.297,1.187],[97.079,1.425],[97.244,1.424],[97.356,1.54],[97.482,1.465],[97.698,1.184]]]}},{"type":"Feature","properties":{"sr":0},"geometry":{"type":"Polygon","coordinates":[[[99.072,-1.783],[98.828,-1.61],[98.816,-1.538],[98.627,-1.261],[98.602,-1.198],[98.676,-0.971],[98.869,-0.916],[98.933,-0.954],[98.955,-1.056],[99.129,-1.384],[99.131,-1.442],[99.267,-1.628],[99.271,-1.738],[99.072,-1.783]]]}},{"type":"Feature","properties":{"sr":0},"geometry":{"type":"Polygon","coordinates":[[[98.4,-0.577],[98.31,-0.532],[98.427,-0.226],[98.323,-0.001],[98.375,0.007],[98.415,-0.018],[98.544,-0.258],[98.459,-0.53],[98.4,-0.577]]]}},{"type":"Feature","properties":{"sr":0},"geometry":{"type":"Polygon","coordinates":[[[97.328,2.053],[97.225,2.158],[97.108,2.217],[97.291,2.201],[97.329,2.149],[97.328,2.053]]]}},{"type":"Feature","properties":{"sr":0},"geometry":{"type":"Polygon","coordinates":[[[96.401,2.351],[96.022,2.596],[95.809,2.656],[95.717,2.826],[95.806,2.916],[95.896,2.889],[95.998,2.781],[96.102,2.741],[96.417,2.515],[96.464,2.36],[96.401,2.351]]]}},{"type":"Feature","properties":{"sr":0},"geometry":{"type":"Polygon","coordinates":[[[95.343,5.784],[95.283,5.799],[95.218,5.89],[95.359,5.877],[95.343,5.784]]]}},{"type":"Feature","properties":{"sr":0},"geometry":{"type":"Polygon","coordinates":[[[104.083,10.341],[104.048,10.061],[104.018,10.029],[103.952,10.243],[103.85,10.371],[104.028,10.428],[104.083,10.341]]]}},{"type":"Feature","properties":{"sr":0},"geometry":{"type":"Polygon","coordinates":[[[103.027,11.275],[102.993,11.29],[102.995,11.348],[103.037,11.39],[103.027,11.275]]]}},{"type":"Feature","properties":{"sr":0},"geometry":{"type":"Polygon","coordinates":[[[102.59,11.572],[102.533,11.615],[102.569,11.692],[102.606,11.677],[102.59,11.572]]]}},{"type":"Feature","properties":{"sr":0},"geometry":{"type":"Polygon","coordinates":[[[102.43,11.965],[102.302,11.981],[102.277,12.152],[102.378,12.073],[102.43,11.965]]]}},{"type":"Feature","properties":{"sr":0},"geometry":{"type":"Polygon","coordinates":[[[103.82,1.265],[103.65,1.326],[103.705,1.423],[103.818,1.447],[103.996,1.365],[103.82,1.265]]]}},{"type":"Feature","properties":{"sr":0},"geometry":{"type":"Polygon","coordinates":[[[104.173,2.721],[104.129,2.767],[104.185,2.872],[104.222,2.732],[104.173,2.721]]]}},{"type":"Feature","properties":{"sr":0},"geometry":{"type":"Polygon","coordinates":[[[100.264,5.267],[100.191,5.283],[100.204,5.447],[100.246,5.468],[100.339,5.41],[100.264,5.267]]]}},{"type":"Feature","properties":{"sr":0},"geometry":{"type":"Polygon","coordinates":[[[99.919,6.359],[99.866,6.297],[99.823,6.313],[99.744,6.263],[99.646,6.418],[99.749,6.41],[99.848,6.466],[99.919,6.359]]]}},{"type":"Feature","properties":{"sr":0},"geometry":{"type":"Polygon","coordinates":[[[99.644,6.516],[99.607,6.597],[99.654,6.714],[99.701,6.571],[99.644,6.516]]]}},{"type":"Feature","properties":{"sr":0},"geometry":{"type":"Polygon","coordinates":[[[100.064,9.68],[99.998,9.748],[99.983,9.794],[100.043,9.792],[100.073,9.749],[100.064,9.68]]]}},{"type":"Feature","properties":{"sr":0},"geometry":{"type":"Polygon","coordinates":[[[100.071,9.586],[100.054,9.461],[99.962,9.422],[99.931,9.476],[99.954,9.581],[100.071,9.586]]]}},{"type":"Feature","properties":{"sr":0},"geometry":{"type":"Polygon","coordinates":[[[98.58,7.917],[98.529,8.109],[98.604,8.057],[98.58,7.917]]]}},{"type":"Feature","properties":{"sr":0},"geometry":{"type":"Polygon","coordinates":[[[98.398,7.828],[98.296,7.776],[98.262,7.926],[98.322,8.166],[98.351,8.111],[98.435,8.086],[98.398,7.828]]]}},{"type":"Feature","properties":{"sr":0},"geometry":{"type":"Polygon","coordinates":[[[98.251,9.041],[98.274,9.13],[98.301,9.139],[98.308,9.051],[98.251,9.041]]]}},{"type":"Feature","properties":{"sr":0},"geometry":{"type":"Polygon","coordinates":[[[93.829,6.749],[93.709,7.001],[93.658,7.016],[93.656,7.136],[93.684,7.184],[93.822,7.237],[93.859,7.207],[93.93,6.973],[93.89,6.831],[93.829,6.749]]]}},{"type":"Feature","properties":{"sr":0},"geometry":{"type":"Polygon","coordinates":[[[93.638,7.262],[93.597,7.319],[93.692,7.411],[93.734,7.356],[93.638,7.262]]]}},{"type":"Feature","properties":{"sr":0},"geometry":{"type":"Polygon","coordinates":[[[93.171,8.212],[93.115,8.219],[93.064,8.275],[93.097,8.349],[93.171,8.212]]]}},{"type":"Feature","properties":{"sr":0},"geometry":{"type":"Polygon","coordinates":[[[93.365,7.877],[93.309,7.964],[93.375,8.018],[93.447,7.899],[93.365,7.877]]]}},{"type":"Feature","properties":{"sr":0},"geometry":{"type":"Polygon","coordinates":[[[93.49,8.019],[93.456,8.172],[93.494,8.225],[93.532,8.214],[93.512,8.16],[93.537,8.057],[93.49,8.019]]]}},{"type":"Feature","properties":{"sr":0},"geometry":{"type":"Polygon","coordinates":[[[92.744,9.131],[92.713,9.205],[92.786,9.241],[92.809,9.173],[92.744,9.131]]]}},{"type":"Feature","properties":{"sr":0},"geometry":{"type":"Polygon","coordinates":[[[92.473,10.521],[92.37,10.547],[92.353,10.751],[92.51,10.897],[92.574,10.704],[92.473,10.521]]]}},{"type":"Feature","properties":{"sr":0},"geometry":{"type":"Polygon","coordinates":[[[92.645,11.361],[92.596,11.386],[92.634,11.427],[92.64,11.509],[92.69,11.463],[92.693,11.381],[92.645,11.361]]]}},{"type":"Feature","properties":{"sr":0},"geometry":{"type":"Polygon","coordinates":[[[93.062,11.899],[92.982,11.959],[92.955,12.002],[93.017,12.037],[93.062,11.899]]]}},{"type":"Feature","properties":{"sr":0},"geometry":{"type":"Polygon","coordinates":[[[92.686,12.8],[92.68,12.939],[92.711,12.962],[92.731,12.949],[92.686,12.8]]]}},{"type":"Feature","properties":{"sr":0},"geometry":{"type":"Polygon","coordinates":[[[92.701,11.513],[92.576,11.718],[92.534,11.873],[92.608,11.95],[92.676,12.192],[92.788,12.226],[92.778,12.303],[92.719,12.357],[92.721,12.541],[92.759,12.669],[92.74,12.78],[92.807,12.879],[92.831,13.003],[92.809,13.04],[92.86,13.231],[92.857,13.358],[92.925,13.486],[93.062,13.545],[93.077,13.401],[93.016,13.336],[93.066,13.222],[92.886,12.942],[92.965,12.85],[92.99,12.539],[92.933,12.453],[92.864,12.436],[92.879,12.228],[92.748,11.993],[92.798,11.875],[92.765,11.639],[92.701,11.513]]]}},{"type":"Feature","properties":{"sr":0},"geometry":{"type":"Polygon","coordinates":[[[98.542,10.962],[98.477,10.98],[98.527,11.087],[98.542,10.962]]]}},{"type":"Feature","properties":{"sr":0},"geometry":{"type":"Polygon","coordinates":[[[98.293,10.78],[98.252,10.744],[98.218,10.838],[98.155,10.898],[98.08,10.887],[98.167,10.98],[98.21,10.953],[98.293,10.78]]]}},{"type":"Feature","properties":{"sr":0},"geometry":{"type":"Polygon","coordinates":[[[98.134,9.875],[98.14,9.975],[98.221,10.045],[98.292,10.051],[98.283,10.008],[98.134,9.875]]]}},{"type":"Feature","properties":{"sr":0},"geometry":{"type":"Polygon","coordinates":[[[98.216,11.456],[98.187,11.472],[98.201,11.567],[98.3,11.783],[98.284,11.594],[98.216,11.456]]]}},{"type":"Feature","properties":{"sr":0},"geometry":{"type":"Polygon","coordinates":[[[98.474,11.899],[98.454,12.061],[98.466,12.084],[98.61,11.957],[98.474,11.899]]]}},{"type":"Feature","properties":{"sr":0},"geometry":{"type":"Polygon","coordinates":[[[98.084,11.637],[98.021,11.696],[98.01,11.86],[98.081,11.733],[98.084,11.637]]]}},{"type":"Feature","properties":{"sr":0},"geometry":{"type":"Polygon","coordinates":[[[98.528,11.539],[98.435,11.567],[98.376,11.792],[98.524,11.805],[98.554,11.745],[98.528,11.539]]]}},{"type":"Feature","properties":{"sr":0},"geometry":{"type":"Polygon","coordinates":[[[98.125,12.145],[98.075,12.164],[98.037,12.232],[98.071,12.292],[98.122,12.279],[98.125,12.145]]]}},{"type":"Feature","properties":{"sr":0},"geometry":{"type":"Polygon","coordinates":[[[98.06,12.398],[98.002,12.279],[97.939,12.346],[97.99,12.394],[98.06,12.398]]]}},{"type":"Feature","properties":{"sr":0},"geometry":{"type":"Polygon","coordinates":[[[98.436,12.571],[98.468,12.571],[98.459,12.474],[98.381,12.354],[98.314,12.336],[98.312,12.678],[98.396,12.647],[98.436,12.571]]]}},{"type":"Feature","properties":{"sr":0},"geometry":{"type":"Polygon","coordinates":[[[98.309,12.935],[98.259,13.014],[98.265,13.202],[98.315,13.099],[98.309,12.935]]]}},{"type":"Feature","properties":{"sr":0},"geometry":{"type":"Polygon","coordinates":[[[97.537,16.24],[97.48,16.306],[97.469,16.461],[97.542,16.505],[97.6,16.43],[97.575,16.253],[97.537,16.24]]]}},{"type":"Feature","properties":{"sr":0},"geometry":{"type":"Polygon","coordinates":[[[99.104,7.471],[99.038,7.548],[99.045,7.637],[99.078,7.592],[99.104,7.471]]]}},{"type":"Feature","properties":{"sr":0},"geometry":{"type":"Polygon","coordinates":[[[94.784,15.794],[94.733,15.823],[94.828,15.933],[94.838,15.892],[94.784,15.794]]]}},{"type":"Feature","properties":{"sr":0},"geometry":{"type":"Polygon","coordinates":[[[94.412,15.848],[94.388,15.994],[94.601,16.206],[94.619,16.141],[94.566,16.019],[94.412,15.848]]]}},{"type":"Feature","properties":{"sr":0},"geometry":{"type":"Polygon","coordinates":[[[93.674,18.676],[93.57,18.76],[93.487,18.868],[93.618,18.889],[93.745,18.866],[93.718,18.716],[93.674,18.676]]]}},{"type":"Feature","properties":{"sr":0},"geometry":{"type":"Polygon","coordinates":[[[93.513,19.755],[93.445,19.806],[93.413,19.95],[93.492,19.893],[93.513,19.755]]]}},{"type":"Feature","properties":{"sr":0},"geometry":{"type":"Polygon","coordinates":[[[93.023,19.829],[92.913,20.0],[92.915,20.086],[92.96,20.046],[93.023,19.829]]]}},{"type":"Feature","properties":{"sr":0},"geometry":{"type":"Polygon","coordinates":[[[93.829,19.475],[93.875,19.481],[93.947,19.408],[93.902,19.332],[93.815,19.299],[93.756,19.326],[93.732,19.416],[93.644,19.495],[93.715,19.558],[93.829,19.475]]]}},{"type":"Feature","properties":{"sr":0},"geometry":{"type":"Polygon","coordinates":[[[91.838,21.75],[91.82,21.81],[91.861,21.927],[91.883,21.884],[91.838,21.75]]]}},{"type":"Feature","properties":{"sr":0},"geometry":{"type":"Polygon","coordinates":[[[91.889,21.503],[91.859,21.533],[91.857,21.709],[91.934,21.722],[91.949,21.508],[91.889,21.503]]]}},{"type":"Feature","properties":{"sr":0},"geometry":{"type":"Polygon","coordinates":[[[91.045,22.105],[91.079,22.52],[91.178,22.283],[91.151,22.175],[91.045,22.105]]]}},{"type":"Feature","properties":{"sr":0},"geometry":{"type":"Polygon","coordinates":[[[91.51,22.353],[91.411,22.476],[91.456,22.617],[91.548,22.425],[91.557,22.382],[91.51,22.353]]]}},{"type":"Feature","properties":{"sr":0},"geometry":{"type":"Polygon","coordinates":[[[90.66,22.92],[90.562,22.975],[90.536,23.015],[90.58,23.035],[90.66,22.92]]]}},{"type":"Feature","properties":{"sr":0},"geometry":{"type":"Polygon","coordinates":[[[90.778,22.089],[90.515,22.065],[90.68,22.327],[90.675,22.445],[90.649,22.541],[90.565,22.618],[90.503,22.835],[90.596,22.864],[90.672,22.813],[90.737,22.639],[90.868,22.485],[90.83,22.16],[90.778,22.089]]]}},{"type":"Feature","properties":{"sr":0},"geometry":{"type":"Polygon","coordinates":[[[79.907,9.62],[79.846,9.715],[79.872,9.744],[79.97,9.631],[79.907,9.62]]]}},{"type":"Feature","properties":{"sr":0},"geometry":{"type":"Polygon","coordinates":[[[79.904,8.975],[79.767,9.07],[79.748,9.105],[79.86,9.066],[79.904,8.975]]]}},{"type":"Feature","properties":{"sr":0},"geometry":{"type":"Polygon","coordinates":[[[103.281,10.68],[103.223,10.76],[103.223,10.782],[103.318,10.719],[103.281,10.68]]]}},{"type":"Feature","properties":{"sr":0},"geometry":{"type":"MultiPolygon","coordinates":[[[[105.0,8.606],[104.77,8.598],[104.896,8.747],[104.819,8.802],[104.845,9.606],[104.903,9.816],[105.0,9.873],[105.0,8.606]]],[[[105.0,10.082],[104.873,10.115],[104.802,10.203],[104.663,10.17],[104.516,10.34],[104.262,10.541],[103.937,10.587],[103.871,10.655],[103.841,10.581],[103.662,10.509],[103.587,10.552],[103.532,10.605],[103.54,10.669],[103.681,10.759],[103.722,10.89],[103.654,11.059],[103.532,11.147],[103.354,10.922],[103.153,10.914],[103.091,11.211],[103.125,11.461],[103.011,11.589],[103.004,11.711],[102.949,11.773],[102.912,11.704],[102.792,11.889],[102.763,12.012],[102.594,12.203],[102.54,12.109],[102.343,12.253],[102.259,12.394],[102.23,12.332],[102.034,12.532],[101.724,12.689],[101.445,12.619],[101.09,12.674],[100.954,12.621],[100.898,12.654],[100.863,12.715],[100.963,13.432],[100.656,13.521],[100.603,13.568],[100.536,13.514],[100.236,13.484],[100.017,13.353],[99.991,13.243],[100.051,13.171],[100.09,13.046],[99.964,12.69],[100.006,12.355],[99.989,12.171],[99.837,11.937],[99.799,11.749],[99.627,11.463],[99.514,11.101],[99.487,10.89],[99.285,10.569],[99.237,10.388],[99.165,10.32],[99.195,10.175],[99.161,9.734],[99.288,9.415],[99.254,9.265],[99.394,9.214],[99.724,9.314],[99.836,9.288],[99.905,9.113],[99.99,8.589],[100.129,8.428],[100.163,8.508],[100.229,8.425],[100.279,8.269],[100.454,7.442],[100.545,7.227],[100.439,7.281],[100.38,7.542],[100.284,7.552],[100.324,7.644],[100.317,7.716],[100.257,7.775],[100.158,7.728],[100.161,7.599],[100.424,7.188],[100.49,7.161],[100.586,7.176],[100.793,6.995],[101.018,6.861],[101.302,6.908],[101.498,6.865],[101.614,6.754],[101.799,6.475],[102.101,6.242],[102.34,6.172],[102.534,5.863],[102.982,5.525],[103.197,5.262],[103.416,4.85],[103.454,4.669],[103.469,4.393],[103.421,3.977],[103.362,3.769],[103.373,3.671],[103.454,3.521],[103.429,3.379],[103.439,2.933],[103.537,2.775],[103.812,2.58],[104.219,1.723],[104.288,1.481],[104.28,1.416],[104.176,1.365],[104.115,1.412],[104.076,1.53],[103.981,1.624],[103.992,1.455],[103.817,1.477],[103.695,1.45],[103.55,1.333],[103.48,1.329],[103.357,1.546],[102.727,1.856],[102.548,2.042],[102.146,2.248],[101.89,2.449],[101.781,2.574],[101.52,2.684],[101.407,2.813],[101.296,2.885],[101.354,3.011],[101.3,3.253],[101.025,3.625],[100.851,3.777],[100.715,3.966],[100.796,4.023],[100.661,4.226],[100.615,4.373],[100.615,4.652],[100.473,5.044],[100.353,5.588],[100.374,5.778],[100.343,5.984],[100.119,6.442],[99.869,6.75],[99.696,6.877],[99.72,7.106],[99.668,7.151],[99.602,7.155],[99.553,7.219],[99.597,7.356],[99.435,7.334],[99.359,7.372],[99.264,7.619],[99.183,7.718],[99.078,7.718],[99.043,7.766],[99.051,7.888],[98.974,7.963],[98.789,8.06],[98.704,8.257],[98.579,8.344],[98.5,8.318],[98.421,8.178],[98.305,8.226],[98.238,8.423],[98.242,8.768],[98.326,8.969],[98.371,9.291],[98.493,9.561],[98.562,9.838],[98.703,10.19],[98.658,10.179],[98.563,10.035],[98.497,10.183],[98.523,10.353],[98.465,10.676],[98.536,10.741],[98.676,10.987],[98.683,11.133],[98.745,11.24],[98.741,11.592],[98.876,11.72],[98.805,11.779],[98.694,11.718],[98.636,11.738],[98.645,11.91],[98.689,11.957],[98.664,12.127],[98.696,12.225],[98.6,12.245],[98.679,12.348],[98.624,12.441],[98.665,12.54],[98.663,12.662],[98.576,13.162],[98.487,13.293],[98.421,13.484],[98.245,13.733],[98.239,13.934],[98.2,13.98],[98.15,13.648],[98.111,13.713],[98.073,13.986],[98.1,14.162],[97.998,14.335],[97.91,14.653],[97.929,14.696],[98.019,14.653],[97.937,14.764],[97.869,14.739],[97.812,14.859],[97.8,15.185],[97.744,15.307],[97.774,15.431],[97.71,15.876],[97.584,16.02],[97.641,16.254],[97.634,16.458],[97.726,16.569],[97.376,16.523],[97.212,16.893],[97.178,17.062],[97.2,17.095],[96.851,17.401],[96.91,17.305],[96.851,17.203],[96.909,17.031],[96.765,16.71],[96.622,16.564],[96.431,16.505],[96.364,16.521],[96.282,16.596],[96.249,16.765],[96.189,16.768],[96.237,16.567],[96.324,16.444],[96.135,16.343],[96.043,16.34],[96.012,16.254],[95.763,16.169],[95.679,15.977],[95.556,15.838],[95.39,15.723],[95.301,15.756],[95.308,15.88],[95.365,15.985],[95.347,16.098],[95.333,16.033],[95.177,15.826],[94.943,15.818],[94.891,15.979],[94.893,16.183],[94.798,15.971],[94.662,15.904],[94.651,16.065],[94.72,16.399],[94.703,16.512],[94.665,16.336],[94.588,16.289],[94.442,16.094],[94.299,16.008],[94.224,16.016],[94.271,16.517],[94.353,16.64],[94.4,16.868],[94.452,16.954],[94.473,17.135],[94.564,17.309],[94.589,17.569],[94.494,17.825],[94.431,18.202],[94.171,18.732],[94.246,18.741],[94.07,18.893],[94.045,19.287],[94.002,19.182],[93.941,19.146],[93.968,18.995],[93.929,18.9],[93.705,19.027],[93.493,19.369],[93.579,19.401],[93.728,19.267],[93.825,19.238],[93.962,19.329],[93.998,19.441],[93.84,19.534],[93.74,19.697],[93.612,19.776],[93.707,19.912],[93.582,19.91],[93.41,20.038],[93.25,20.07],[93.157,20.041],[93.199,19.898],[93.191,19.851],[93.129,19.858],[93.002,20.075],[93.096,20.181],[93.015,20.185],[93.067,20.378],[93.035,20.406],[92.991,20.288],[92.882,20.152],[92.828,20.178],[92.791,20.211],[92.891,20.34],[92.736,20.563],[92.709,20.564],[92.723,20.296],[92.608,20.47],[92.308,20.79],[92.056,21.175],[92.008,21.685],[91.913,21.883],[91.825,22.229],[91.863,22.35],[91.797,22.297],[91.693,22.505],[91.53,22.708],[91.482,22.797],[91.48,22.885],[91.216,22.642],[90.946,22.597],[90.827,22.721],[90.656,23.025],[90.634,23.094],[90.656,23.273],[90.604,23.591],[90.562,23.537],[90.556,23.422],[90.269,23.456],[90.392,23.367],[90.523,23.346],[90.591,23.266],[90.595,23.134],[90.466,23.054],[90.478,22.987],[90.552,22.905],[90.462,22.882],[90.435,22.752],[90.498,22.635],[90.487,22.589],[90.616,22.362],[90.589,22.258],[90.356,22.048],[90.231,21.83],[90.159,21.817],[90.071,21.887],[90.088,22.017],[90.21,22.157],[89.954,22.023],[89.918,22.116],[89.894,22.308],[89.985,22.466],[89.882,22.388],[89.853,22.091],[89.812,21.983],[89.569,21.767],[89.483,22.276],[89.501,21.914],[89.354,21.721],[89.234,21.722],[89.094,21.873],[89.051,22.093],[89.028,21.937],[88.949,21.938],[89.02,21.834],[89.052,21.654],[88.907,21.653],[88.858,21.745],[88.834,21.661],[88.745,21.584],[88.695,21.662],[88.691,21.733],[88.74,22.005],[88.708,22.056],[88.66,22.067],[88.642,22.122],[88.567,21.832],[88.6,21.714],[88.585,21.66],[88.446,21.614],[88.287,21.758],[88.254,21.622],[88.122,21.636],[88.057,21.694],[88.196,22.14],[87.994,22.266],[87.941,22.374],[87.962,22.255],[88.159,22.122],[87.948,21.825],[87.678,21.654],[87.101,21.501],[86.86,21.237],[86.842,21.106],[86.939,20.745],[86.975,20.7],[86.763,20.419],[86.75,20.313],[86.499,20.172],[86.377,20.007],[86.245,20.053],[86.312,19.988],[86.279,19.919],[86.216,19.896],[85.575,19.693],[85.497,19.697],[85.56,19.753],[85.555,19.867],[85.504,19.888],[85.46,19.896],[85.249,19.758],[85.163,19.621],[85.181,19.595],[85.371,19.679],[85.437,19.657],[85.442,19.627],[85.226,19.508],[84.771,19.125],[84.691,18.965],[84.104,18.293],[83.654,18.07],[83.198,17.609],[82.977,17.462],[82.593,17.274],[82.36,17.096],[82.282,16.936],[82.36,16.783],[82.259,16.56],[81.762,16.329],[81.402,16.365],[81.286,16.337],[81.132,15.962],[81.03,15.881],[80.979,15.758],[80.826,15.766],[80.782,15.867],[80.647,15.895],[80.385,15.793],[80.293,15.711],[80.101,15.324],[80.053,15.074],[80.179,14.478],[80.17,14.349],[80.112,14.212],[80.307,13.485],[80.156,13.714],[80.062,13.606],[80.114,13.529],[80.29,13.437],[80.342,13.361],[80.229,12.69],[80.143,12.452],[79.982,12.235],[79.858,11.989],[79.754,11.575],[79.793,11.447],[79.693,11.313],[79.799,11.339],[79.849,11.197],[79.838,10.323],[79.667,10.3],[79.532,10.33],[79.391,10.306],[79.315,10.257],[79.254,10.175],[79.258,10.035],[78.996,9.683],[78.919,9.453],[79.02,9.333],[79.275,9.285],[79.411,9.192],[79.213,9.256],[78.98,9.269],[78.421,9.105],[78.192,8.891],[78.126,8.511],[78.06,8.385],[77.77,8.19],[77.518,8.078],[77.301,8.145],[76.967,8.407],[76.553,8.903],[76.472,9.161],[76.403,9.237],[76.325,9.452],[76.242,9.927],[76.343,9.827],[76.376,9.54],[76.459,9.536],[76.346,9.922],[76.223,10.024],[76.196,10.086],[76.201,10.201],[75.923,10.784],[75.724,11.362],[75.525,11.703],[75.197,12.058],[74.946,12.565],[74.771,13.077],[74.671,13.668],[74.499,14.046],[74.382,14.495],[73.949,15.075],[73.884,15.306],[73.801,15.397],[73.932,15.397],[73.772,15.573],[73.833,15.659],[73.733,15.657],[73.68,15.709],[73.608,15.871],[73.476,16.054],[73.338,16.46],[73.239,17.199],[73.149,17.527],[73.156,17.622],[72.994,18.098],[72.917,18.576],[72.875,18.643],[72.899,18.779],[73.006,19.021],[72.972,19.153],[72.901,19.015],[72.835,18.976],[72.803,19.079],[72.812,19.299],[72.987,19.277],[72.788,19.363],[72.756,19.451],[72.799,19.52],[72.727,19.578],[72.668,19.831],[72.709,20.078],[72.881,20.563],[72.894,20.673],[72.814,21.117],[72.692,21.178],[72.624,21.372],[72.735,21.471],[72.613,21.462],[72.811,21.62],[73.112,21.75],[72.84,21.687],[72.543,21.697],[72.592,21.878],[72.7,21.972],[72.522,21.976],[72.553,22.16],[72.809,22.233],[72.59,22.278],[72.456,22.248],[72.183,22.27],[72.306,22.189],[72.274,22.09],[72.244,22.028],[72.094,21.92],[72.037,21.823],[72.171,21.774],[72.21,21.728],[72.257,21.661],[72.254,21.531],[72.015,21.156],[71.396,20.87],[71.025,20.739],[70.88,20.715],[70.719,20.74],[70.485,20.84],[70.127,21.095],[69.748,21.506],[69.192,21.992],[69.009,22.197],[68.97,22.29],[68.983,22.385],[69.052,22.437],[69.131,22.416],[69.277,22.285],[69.549,22.408],[69.655,22.404],[69.728,22.465],[69.819,22.452],[70.006,22.548],[70.177,22.573],[70.44,22.97],[70.513,23.002],[70.489,23.09],[70.435,23.077],[70.339,22.94],[70.251,22.971],[70.118,22.947],[69.665,22.759],[69.236,22.849],[68.817,23.054],[68.641,23.19],[68.417,23.571],[68.454,23.629],[68.777,23.852],[68.497,23.748],[68.343,23.617],[68.235,23.597],[68.165,23.857],[68.116,23.753],[68.037,23.848],[67.951,23.829],[67.86,23.903],[67.819,23.828],[67.668,23.811],[67.646,23.92],[67.563,23.882],[67.477,24.018],[67.365,24.092],[67.309,24.175],[67.289,24.368],[67.171,24.756],[66.703,24.861],[66.699,25.226],[66.57,25.379],[66.534,25.484],[66.429,25.575],[66.219,25.59],[66.131,25.493],[66.356,25.507],[66.468,25.445],[66.235,25.464],[65.884,25.42],[65.68,25.355],[65.406,25.374],[65.061,25.311],[64.777,25.307],[64.659,25.184],[64.152,25.333],[64.059,25.403],[63.936,25.343],[63.721,25.386],[63.557,25.353],[63.496,25.298],[63.491,25.211],[63.17,25.255],[63.015,25.225],[62.665,25.265],[62.572,25.255],[62.315,25.135],[62.199,25.225],[62.089,25.155],[61.908,25.131],[61.744,25.138],[61.533,25.196],[61.412,25.102],[60.664,25.282],[60.587,25.414],[60.511,25.437],[60.4,25.312],[60.025,25.384],[59.897,25.362],[59.818,25.401],[59.616,25.403],[59.456,25.481],[59.046,25.417],[58.798,25.555],[58.531,25.592],[58.203,25.592],[57.937,25.692],[57.796,25.653],[57.733,25.725],[57.335,25.792],[57.206,26.037],[57.201,26.159],[57.104,26.371],[57.036,26.801],[56.91,26.995],[56.728,27.128],[56.356,27.2],[56.118,27.143],[55.941,27.038],[55.65,26.978],[55.424,26.771],[55.294,26.786],[55.0,26.625],[55.0,45.0],[105.0,45.0],[105.0,10.082]]],[[[55.098,25.042],[55.523,25.498],[55.941,25.794],[56.164,26.207],[56.306,26.235],[56.379,26.356],[56.413,26.351],[56.416,26.109],[56.374,25.805],[56.298,25.651],[56.363,25.569],[56.373,25.018],[56.49,24.716],[56.641,24.47],[56.913,24.15],[57.22,23.923],[57.611,23.804],[58.12,23.717],[58.325,23.624],[58.578,23.643],[58.773,23.517],[59.03,23.131],[59.195,22.972],[59.429,22.661],[59.535,22.579],[59.823,22.509],[59.837,22.421],[59.8,22.22],[59.371,21.499],[59.069,21.289],[58.896,21.113],[58.474,20.407],[58.349,20.387],[58.209,20.424],[58.245,20.599],[58.169,20.59],[58.103,20.57],[57.862,20.244],[57.714,19.678],[57.812,19.017],[57.676,18.958],[57.177,18.903],[56.826,18.754],[56.655,18.587],[56.551,18.166],[56.383,17.988],[56.27,17.951],[55.614,17.886],[55.479,17.843],[55.255,17.586],[55.238,17.505],[55.296,17.382],[55.275,17.321],[55.174,17.158],[55.064,17.039],[55.0,17.023],[55.0,24.977],[55.098,25.042]]]]}},{"type":"Feature","properties":{"sr":0},"geometry":{"type":"Polygon","coordinates":[[[72.788,11.216],[72.772,11.214],[72.793,11.263],[72.788,11.216]]]}},{"type":"Feature","properties":{"sr":0},"geometry":{"type":"Polygon","coordinates":[[[73.079,8.317],[73.029,8.254],[73.026,8.275],[73.079,8.317]]]}},{"type":"Feature","properties":{"sr":0},"geometry":{"type":"Polygon","coordinates":[[[73.395,3.229],[73.385,3.271],[73.428,3.29],[73.435,3.25],[73.395,3.229]]]}},{"type":"Feature","properties":{"sr":0},"geometry":{"type":"Polygon","coordinates":[[[73.495,4.155],[73.473,4.171],[73.518,4.248],[73.519,4.187],[73.495,4.155]]]}}]}