{"type":"FeatureCollection","features":[{"type":"Feature","properties":{"label":"Line of Control (military line, not a border)","note":"Approximate. Derived from the edge of the Census 2011 district polygons that adjoin the Pakistan-occupied area."},"geometry":{"type":"LineString","coordinates":[[74.4585,32.7767],[74.4575,32.7828],[74.4513,32.7836],[74.4695,32.7997],[74.5216,32.8887],[74.4965,32.929],[74.4941,32.9459],[74.5119,32.9615],[74.5654,32.9929],[74.5896,32.9932],[74.5954,33.0035],[74.5911,33.0153],[74.5786,33.0338],[74.5417,33.0632],[74.5337,33.0619],[74.491,33.0764],[74.445,33.0637],[74.4188,33.0667],[74.3842,33.0813],[74.3553,33.108],[74.2172,33.1461],[74.184,33.1828],[74.1733,33.2046],[74.1537,33.328],[74.1284,33.3665],[74.1288,33.3754],[74.116,33.3765],[74.1015,33.388],[74.0869,33.4047],[74.0783,33.4232],[74.0738,33.4367],[74.0815,33.5216],[74.0749,33.5401],[74.0585,33.5483],[74.0042,33.5336],[73.9898,33.5418],[73.9728,33.5669],[73.9383,33.5695],[73.9207,33.5617],[73.8815,33.6498],[73.8768,33.7075],[73.8845,33.7428],[73.9448,33.8367],[73.9698,33.8525],[74.1489,33.9283],[74.157,33.9439],[74.1632,33.9735],[74.1624,34.01],[74.2429,33.9979],[74.2655,33.9882],[74.3029,33.96],[74.3275,33.9537],[74.3311,33.9724],[74.3217,34.0214],[74.2938,34.0752],[74.2913,34.0921],[74.3008,34.1194],[74.3325,34.1539],[74.3275,34.1895],[74.3149,34.2028],[74.251,34.2271],[74.1751,34.2375],[74.062,34.2641],[74.0394,34.2704],[74.02,34.2853],[74.0083,34.2851],[73.9937,34.2949],[73.9699,34.3385],[73.9456,34.3974],[73.9157,34.4358],[73.9089,34.4577],[73.9097,34.4984],[73.9352,34.5346],[73.9775,34.5609],[74.1014,34.599],[74.175,34.6089],[74.252,34.6443],[74.2779,34.6719],[74.3409,34.6968],[74.359,34.7124],[74.3682,34.7549],[74.4085,34.7862],[74.4673,34.8177],[74.5916,34.8689],[74.6035,34.8691],[74.6819,34.7702],[74.7883,34.6885],[74.9353,34.5856],[74.9878,34.5286],[75.0252,34.5102],[75.0835,34.5],[75.1384,34.4991],[75.2207,34.5037],[75.3046,34.515],[75.3924,34.5434],[75.7051,34.6116],[75.8156,34.6428],[75.8853,34.65],[75.9898,34.6725],[76.0473,34.6744],[76.078,34.683],[76.121,34.7086],[76.1353,34.7273],[76.1947,34.7664],[76.2377,34.8072],[76.2521,34.831],[76.2767,34.8497],[76.3075,34.8616],[76.3425,34.8583],[76.3751,34.8331],[76.5393,34.8254],[76.8474,34.8333],[76.9643,34.8494],[77.0414,34.8676],[77.0688,34.8798],[77.0938,34.9145],[77.109,34.9616],[77.1092,34.9985],[77.0945,35.0435],[77.0448,35.0744],[77.0425,35.1031],[77.065,35.1398],[77.1075,35.1499],[77.1598,35.1477],[77.2494,35.135],[77.2793,35.1451],[77.3372,35.2226],[77.4809,35.4779],[77.4902,35.4815]]}}]}