{"type":"FeatureCollection","features":[{"type":"Feature","properties":{"id":"pojk","label":"Pakistan-occupied Jammu & Kashmir (PoJK)","region":"PoJK","ut_post_2019":"J&K"},"geometry":{"type":"MultiPolygon","coordinates":[[[[74.6819,34.7702],[74.6035,34.8691],[74.5752,34.8652],[74.4673,34.8177],[74.3828,34.7675],[74.3492,34.7679],[74.3531,34.744],[74.3476,34.7025],[74.3409,34.6968],[74.2779,34.6719],[74.252,34.6443],[74.2034,34.6197],[74.175,34.6089],[74.0526,34.5862],[73.9775,34.5609],[73.9533,34.5468],[73.9193,34.5173],[73.9097,34.4984],[73.9096,34.4555],[73.9046,34.4463],[73.8726,34.4194],[73.8212,34.4084],[73.7756,34.3673],[73.7773,34.3576],[73.8113,34.3663],[73.8524,34.3486],[73.8674,34.3584],[73.8843,34.3561],[73.9326,34.3652],[73.9536,34.3495],[73.9698,34.2975],[73.994,34.2947],[74.0138,34.2836],[74.0206,34.2527],[74.0215,34.1753],[74.0121,34.1633],[73.9931,34.1581],[73.9866,34.1436],[73.9518,34.1187],[73.9475,34.0962],[73.9305,34.0886],[73.9232,34.0634],[73.9369,34.0563],[73.95,34.0364],[73.9891,34.0338],[74.0023,34.0517],[74.0146,34.0571],[74.0356,34.0504],[74.0775,34.0601],[74.1714,34.0585],[74.1904,34.0449],[74.213,34.0395],[74.2199,34.0196],[74.2662,34.02],[74.2949,33.9824],[74.2963,33.9648],[74.2429,33.9979],[74.1624,34.01],[74.1632,33.9735],[74.1489,33.9283],[73.9698,33.8525],[73.9448,33.8367],[73.8845,33.7428],[73.8768,33.7075],[73.8815,33.6498],[73.9207,33.5617],[73.9383,33.5695],[73.9728,33.5669],[73.9898,33.5418],[74.0042,33.5336],[74.0585,33.5483],[74.0749,33.5401],[74.0815,33.5216],[74.0738,33.4367],[74.0783,33.4232],[74.1015,33.388],[74.116,33.3765],[74.1288,33.3754],[74.1284,33.3665],[74.1537,33.328],[74.1587,33.3016],[74.1397,33.2851],[74.1027,33.2655],[74.0568,33.2615],[74.0402,33.2493],[74.0276,33.2291],[74.1588,33.1702],[74.2034,33.0923],[74.303,33.0472],[74.336,33.0437],[74.3597,32.9597],[74.3514,32.9348],[74.3787,32.9347],[74.4273,32.9048],[74.4367,32.8592],[74.4576,32.8356],[74.4648,32.799],[74.4452,32.7804],[74.4065,32.7827],[74.3973,32.7664],[74.388,32.7686],[74.385,32.7583],[74.3708,32.759],[74.3306,32.7765],[74.3249,32.7935],[74.3022,32.8047],[74.3018,32.8233],[74.2174,32.8453],[74.2025,32.8707],[74.1873,32.8732],[74.1782,32.883],[74.0572,32.9108],[74.0486,32.9324],[74.0143,32.9298],[73.9908,32.9372],[73.9973,32.9602],[73.9685,32.9692],[73.96,32.9863],[73.942,32.9884],[73.9172,33.0156],[73.8835,33.0153],[73.8581,33.0039],[73.8296,33.0074],[73.8183,33.0004],[73.816,32.9904],[73.791,32.9953],[73.7434,33.0394],[73.7353,33.0667],[73.6886,33.0884],[73.6526,33.0852],[73.6279,33.0899],[73.6261,33.14],[73.6376,33.1423],[73.6464,33.162],[73.6564,33.1693],[73.6577,33.2081],[73.6409,33.2268],[73.6287,33.2157],[73.6253,33.2369],[73.6056,33.2517],[73.598,33.2827],[73.6041,33.2953],[73.5898,33.3053],[73.5821,33.3265],[73.5908,33.3369],[73.5868,33.341],[73.5751,33.3342],[73.5658,33.3425],[73.5714,33.3562],[73.5585,33.3684],[73.5649,33.3943],[73.5914,33.4222],[73.5827,33.4294],[73.5879,33.4435],[73.6249,33.4576],[73.6131,33.4802],[73.6016,33.4784],[73.5966,33.5005],[73.6002,33.505],[73.6095,33.5009],[73.6073,33.52],[73.6331,33.5335],[73.619,33.544],[73.621,33.5742],[73.6009,33.5933],[73.6038,33.6076],[73.5895,33.6046],[73.5783,33.6162],[73.5614,33.6215],[73.5691,33.6411],[73.5632,33.6759],[73.5911,33.6989],[73.5976,33.7162],[73.5913,33.7542],[73.5664,33.769],[73.5584,33.7836],[73.5729,33.8458],[73.5857,33.8646],[73.5899,33.8843],[73.579,33.9108],[73.5496,33.9315],[73.5165,34.0005],[73.5083,34.0603],[73.4975,34.0844],[73.4953,34.134],[73.489,34.1448],[73.4931,34.2202],[73.47,34.2518],[73.4786,34.2906],[73.4678,34.296],[73.4538,34.2783],[73.4536,34.2973],[73.4381,34.3296],[73.4242,34.3397],[73.4251,34.3535],[73.4015,34.3584],[73.3908,34.3747],[73.4093,34.3868],[73.4202,34.4178],[73.4254,34.4423],[73.4222,34.4707],[73.4375,34.5045],[73.4299,34.5214],[73.4413,34.5384],[73.4478,34.5742],[73.5007,34.5806],[73.523,34.5747],[73.5574,34.5934],[73.6184,34.5861],[73.6395,34.5662],[73.6509,34.5683],[73.6609,34.589],[73.6602,34.6104],[73.6962,34.6541],[73.6669,34.6661],[73.6675,34.6847],[73.6813,34.6956],[73.6916,34.7167],[73.7066,34.7254],[73.7314,34.7715],[73.7501,34.7872],[73.7738,34.7969],[73.8211,34.796],[73.8497,34.8177],[73.8674,34.8115],[73.8754,34.8184],[73.9012,34.8218],[73.9182,34.8145],[73.9357,34.8335],[73.9644,34.8417],[73.9744,34.8653],[74.0304,34.8776],[74.0422,34.8945],[74.0381,34.9033],[74.0439,34.9219],[74.0658,34.9301],[74.074,34.94],[74.0605,34.9936],[74.1082,35.0195],[74.0977,35.0342],[74.0664,35.0485],[74.0933,35.0965],[74.1344,35.108],[74.123,35.1244],[74.151,35.117],[74.1709,35.1001],[74.2104,35.1048],[74.2323,35.0992],[74.2592,35.0606],[74.2987,35.0856],[74.3566,35.0772],[74.4404,35.1556],[74.4678,35.1478],[74.4772,35.1307],[74.4935,35.1306],[74.5198,35.1188],[74.5337,35.0949],[74.5568,35.0759],[74.5613,35.0543],[74.556,35.0403],[74.5845,35.0349],[74.6078,35.005],[74.6074,34.9912],[74.5893,34.9596],[74.5905,34.9289],[74.6207,34.93],[74.6512,34.9168],[74.6725,34.9188],[74.6986,34.8891],[74.7379,34.8712],[74.7468,34.8501],[74.775,34.8244],[74.7924,34.7757],[74.8158,34.7673],[74.8199,34.7364],[74.8032,34.7147],[74.7675,34.7045],[74.6819,34.7702]]]]}},{"type":"Feature","properties":{"id":"gilgit-baltistan","label":"Gilgit-Baltistan (Pakistan-occupied)","region":"PoJK","ut_post_2019":"Ladakh"},"geometry":{"type":"MultiPolygon","coordinates":[[[[74.7087,37.0776],[74.7282,37.026],[74.75,37.0117],[74.7592,37.0148],[74.7661,37.0269],[74.7789,37.0298],[74.8401,37.0223],[74.846,36.9899],[74.9109,36.9124],[74.9222,36.9061],[74.9413,36.9347],[74.9912,36.9628],[75.0128,36.966],[75.0187,36.9764],[75.096,36.9428],[75.1511,36.9671],[75.1734,36.9861],[75.209,37.0368],[75.265,37.0519],[75.2792,37.0469],[75.3438,37.0525],[75.3452,37.0031],[75.352,36.981],[75.3763,36.9605],[75.3866,36.9594],[75.4012,36.968],[75.4231,36.9607],[75.4268,36.939],[75.4088,36.9167],[75.4142,36.8919],[75.417,36.8872],[75.4378,36.8915],[75.444,36.8872],[75.46,36.8306],[75.4742,36.8108],[75.514,36.7921],[75.6165,36.7616],[75.6752,36.696],[75.754,36.584],[75.8062,36.5543],[75.8491,36.5443],[75.9234,36.5024],[75.997,36.4843],[76.0259,36.486],[76.0692,36.4775],[76.0846,36.4696],[76.1103,36.4485],[75.9816,36.4654],[75.9648,36.4571],[75.9611,36.4442],[75.9668,36.4209],[75.9488,36.3441],[75.9489,36.3],[75.961,36.2745],[75.9928,36.2402],[75.9727,36.2323],[75.9524,36.2118],[75.9493,36.1893],[75.9569,36.1691],[75.8876,36.1281],[75.8744,36.096],[75.8836,36.052],[75.9084,36.0173],[75.9423,35.9904],[75.9793,35.9763],[76.0565,35.9718],[76.0765,35.9624],[76.0961,35.9336],[76.1203,35.8176],[76.1558,35.789],[76.1906,35.785],[76.2596,35.7976],[76.3162,35.7901],[76.3542,35.811],[76.4101,35.8123],[76.4402,35.8419],[76.5074,35.8528],[76.5403,35.879],[76.5448,35.8642],[76.5313,35.7814],[76.5547,35.7393],[76.5958,35.7176],[76.6685,35.6954],[76.696,35.6786],[76.7373,35.6367],[76.7603,35.6273],[76.8325,35.6238],[76.8677,35.5853],[76.9101,35.5638],[76.9759,35.5587],[77.0192,35.5646],[77.0496,35.5616],[77.095,35.5209],[77.1364,35.506],[77.2762,35.5084],[77.3777,35.4529],[77.4131,35.4494],[77.4699,35.4568],[77.3372,35.2226],[77.2793,35.1451],[77.2494,35.135],[77.1075,35.1499],[77.065,35.1398],[77.0425,35.1031],[77.0448,35.0744],[77.0945,35.0435],[77.1092,34.9985],[77.109,34.9616],[77.0938,34.9145],[77.0688,34.8798],[77.0414,34.8676],[76.9643,34.8494],[76.8474,34.8333],[76.5393,34.8254],[76.3751,34.8331],[76.3425,34.8583],[76.3075,34.8616],[76.2767,34.8497],[76.2521,34.831],[76.2193,34.7885],[76.1353,34.7273],[76.121,34.7086],[76.078,34.683],[76.0473,34.6744],[75.9898,34.6725],[75.8853,34.65],[75.8156,34.6428],[75.7051,34.6116],[75.3924,34.5434],[75.3046,34.515],[75.1384,34.4991],[75.0835,34.5],[75.0252,34.5102],[74.9878,34.5286],[74.9353,34.5856],[74.7675,34.7045],[74.8088,34.7197],[74.8203,34.7383],[74.8168,34.7657],[74.8069,34.7746],[74.7924,34.7757],[74.775,34.8244],[74.7468,34.8501],[74.7408,34.8684],[74.6986,34.8891],[74.6777,34.9159],[74.6512,34.9168],[74.6207,34.93],[74.5905,34.9289],[74.5893,34.9596],[74.6074,34.9912],[74.6078,35.005],[74.5845,35.0349],[74.556,35.0403],[74.5613,35.0543],[74.5568,35.0759],[74.5337,35.0949],[74.5198,35.1188],[74.4935,35.1306],[74.4772,35.1307],[74.4678,35.1478],[74.4404,35.1556],[74.3566,35.0772],[74.2987,35.0856],[74.2592,35.0606],[74.2323,35.0992],[74.2104,35.1048],[74.1709,35.1001],[74.1366,35.1235],[74.1168,35.1248],[74.1098,35.1322],[74.1142,35.1519],[74.102,35.1458],[74.0804,35.1547],[74.0391,35.1475],[74.0091,35.1661],[73.9998,35.1844],[73.9592,35.1744],[73.9173,35.2122],[73.8652,35.2108],[73.8468,35.2296],[73.7964,35.2455],[73.7775,35.2439],[73.73,35.2173],[73.7152,35.2284],[73.7271,35.2783],[73.6999,35.3232],[73.7004,35.3584],[73.7116,35.3872],[73.7389,35.4279],[73.7547,35.442],[73.7951,35.4602],[73.7849,35.5257],[73.7351,35.5366],[73.7208,35.5535],[73.6727,35.5512],[73.6355,35.5718],[73.5711,35.5548],[73.5579,35.5557],[73.5321,35.5711],[73.5067,35.5654],[73.4818,35.5773],[73.4068,35.564],[73.3674,35.6055],[73.2727,35.6298],[73.2155,35.6751],[73.1363,35.7192],[73.1357,35.7938],[73.1542,35.8417],[73.1277,35.853],[73.0892,35.8834],[73.0759,35.8853],[73.056,35.8637],[73.0381,35.8548],[73.0141,35.8553],[72.9997,35.8635],[72.9578,35.8477],[72.9294,35.8455],[72.9047,35.8536],[72.9016,35.8817],[72.8576,35.8777],[72.8302,35.8874],[72.8253,35.8748],[72.799,35.8675],[72.7981,35.8558],[72.7773,35.844],[72.7375,35.8588],[72.6911,35.8329],[72.6604,35.8492],[72.6456,35.8663],[72.6016,35.8711],[72.5695,35.9073],[72.5337,35.9174],[72.5311,35.9529],[72.5484,35.9625],[72.5561,35.9967],[72.5732,35.9964],[72.5836,36.0197],[72.596,36.0273],[72.5862,36.0504],[72.55,36.0567],[72.5311,36.0747],[72.5366,36.1145],[72.5525,36.1367],[72.5738,36.151],[72.5515,36.1812],[72.5603,36.1966],[72.5605,36.2124],[72.5854,36.2305],[72.5952,36.2622],[72.6367,36.2765],[72.6635,36.2642],[72.6819,36.2628],[72.694,36.2501],[72.6886,36.2686],[72.6924,36.2757],[72.7236,36.2841],[72.7505,36.3051],[72.7786,36.3099],[72.8157,36.3384],[72.8297,36.3611],[72.8509,36.3727],[72.8664,36.3735],[72.8833,36.3873],[72.8901,36.3978],[72.8902,36.4247],[72.8775,36.4381],[72.8795,36.4433],[72.9025,36.4495],[72.9223,36.463],[72.9435,36.4585],[72.9628,36.4675],[72.9921,36.4581],[73.0039,36.4761],[72.9904,36.4805],[72.9994,36.5074],[72.996,36.5149],[73.0615,36.5377],[73.0739,36.5615],[73.0906,36.5716],[73.0929,36.5866],[73.1125,36.6101],[73.092,36.6348],[73.0944,36.6671],[73.085,36.6823],[73.0854,36.6997],[73.1028,36.6877],[73.1265,36.6866],[73.1455,36.7],[73.1811,36.712],[73.1894,36.7218],[73.215,36.7],[73.2344,36.6995],[73.2532,36.7091],[73.3147,36.7064],[73.3303,36.7155],[73.3608,36.7155],[73.3721,36.7349],[73.4,36.7317],[73.4416,36.7451],[73.4634,36.7317],[73.4825,36.7339],[73.5115,36.7154],[73.5299,36.7207],[73.5439,36.7094],[73.6002,36.7203],[73.6075,36.6985],[73.6332,36.6901],[73.6549,36.6961],[73.7006,36.6849],[73.7251,36.71],[73.7831,36.7024],[73.8091,36.7167],[73.8841,36.6993],[73.9016,36.707],[73.8972,36.7163],[73.9065,36.7315],[73.9001,36.7497],[73.8636,36.7882],[73.8294,36.7893],[73.8151,36.7984],[73.8063,36.8154],[73.7782,36.8153],[73.7442,36.8334],[73.7239,36.8344],[73.7191,36.8572],[73.6814,36.8856],[73.6903,36.9121],[73.7112,36.9128],[73.7454,36.8964],[73.7677,36.9047],[73.7933,36.8937],[73.8097,36.8965],[73.8181,36.8857],[73.8358,36.8869],[73.8491,36.8999],[73.8788,36.8944],[73.9134,36.8713],[73.9238,36.878],[73.9378,36.8739],[73.9714,36.8401],[73.9943,36.8266],[74.026,36.8263],[74.0558,36.8064],[74.0927,36.8386],[74.121,36.8323],[74.1427,36.8401],[74.1568,36.8887],[74.1691,36.9025],[74.2178,36.8989],[74.2614,36.8866],[74.3239,36.9227],[74.3683,36.9589],[74.4162,36.9731],[74.4299,36.99],[74.5322,36.9868],[74.5545,36.9536],[74.5787,36.9486],[74.5894,37.0286],[74.5818,37.0434],[74.6593,37.0577],[74.6959,37.0781],[74.7087,37.0776]]],[[[77.0799,35.7971],[77.1195,35.7964],[77.1226,35.7868],[77.1361,35.7818],[77.1435,35.7697],[77.1642,35.7667],[77.1631,35.7405],[77.1031,35.7574],[77.0799,35.7971]]],[[[76.4081,36.3182],[76.432,36.3082],[76.4366,36.2884],[76.4495,36.2716],[76.4464,36.2647],[76.4397,36.2607],[76.4081,36.3182]]],[[[76.2291,36.3629],[76.2548,36.3478],[76.2689,36.3472],[76.3438,36.3628],[76.3918,36.3298],[76.3201,36.35],[76.2472,36.3411],[76.2291,36.3629]]],[[[74.1585,33.3027],[74.1733,33.2046],[74.184,33.1828],[74.2172,33.1461],[74.3553,33.108],[74.3842,33.0813],[74.4188,33.0667],[74.445,33.0637],[74.491,33.0764],[74.5417,33.0632],[74.5786,33.0338],[74.5911,33.0153],[74.5954,33.0035],[74.5896,32.9932],[74.5654,32.9929],[74.4941,32.9459],[74.4965,32.929],[74.5216,32.8887],[74.4695,32.7997],[74.4605,32.7918],[74.4659,32.8073],[74.459,32.8321],[74.4367,32.8592],[74.434,32.8891],[74.4253,32.9082],[74.3768,32.9353],[74.3514,32.9348],[74.36,32.9578],[74.3374,33.0424],[74.3257,33.0482],[74.303,33.0472],[74.2034,33.0923],[74.1588,33.1702],[74.0276,33.2291],[74.0402,33.2493],[74.0568,33.2615],[74.1045,33.2661],[74.1381,33.284],[74.1585,33.3027]]],[[[74.3682,34.7549],[74.359,34.7124],[74.3409,34.6968],[74.3476,34.7025],[74.3531,34.744],[74.3492,34.7679],[74.3863,34.7705],[74.3682,34.7549]]],[[[74.0083,34.2851],[74.062,34.2641],[74.1751,34.2375],[74.251,34.2271],[74.3149,34.2028],[74.3275,34.1895],[74.3325,34.1539],[74.3008,34.1194],[74.2913,34.0921],[74.2938,34.0752],[74.3217,34.0214],[74.3311,33.9724],[74.3275,33.9537],[74.3029,33.96],[74.2801,33.9766],[74.2963,33.9648],[74.2941,33.9842],[74.2679,34.0189],[74.2199,34.0196],[74.213,34.0395],[74.1904,34.0449],[74.1733,34.0582],[74.0798,34.0602],[74.0356,34.0504],[74.0146,34.0571],[74.0023,34.0517],[73.9891,34.0338],[73.9678,34.0326],[73.95,34.0364],[73.9369,34.0563],[73.9232,34.0634],[73.9305,34.0886],[73.9498,34.0994],[73.9518,34.1187],[73.9866,34.1436],[73.9931,34.1581],[74.0121,34.1633],[74.0209,34.1735],[74.0206,34.2527],[74.0146,34.2819],[74.0083,34.2851]]],[[[73.9307,34.4141],[73.9456,34.3974],[73.994,34.2947],[73.9698,34.2975],[73.9536,34.3495],[73.9306,34.3658],[73.8843,34.3561],[73.8674,34.3584],[73.8524,34.3486],[73.8113,34.3663],[73.7773,34.3576],[73.7756,34.3673],[73.8212,34.4084],[73.8745,34.4204],[73.9046,34.4463],[73.9089,34.4577],[73.9307,34.4141]]],[[[73.9583,32.987],[73.9255,32.9861],[73.8965,33.0024],[73.8638,33.0019],[73.8524,33.0051],[73.9037,33.0188],[73.9303,33.0059],[73.942,32.9884],[73.9583,32.987]]],[[[73.816,32.9904],[73.8083,32.9725],[73.7924,32.9656],[73.7801,32.9727],[73.7887,32.9985],[73.816,32.9904]]]]}},{"type":"Feature","properties":{"id":"shaksgam","label":"Shaksgam Valley (illegally ceded by Pakistan to China, 1963)","region":"Ladakh","ut_post_2019":"Ladakh"},"geometry":{"type":"MultiPolygon","coordinates":[[[[76.1137,36.4456],[76.1731,36.3903],[76.1986,36.3874],[76.2149,36.3757],[76.2472,36.3411],[76.3201,36.35],[76.3973,36.3264],[76.4397,36.2607],[76.4324,36.2521],[76.4571,36.2405],[76.4817,36.2114],[76.5449,36.1928],[76.563,36.1731],[76.581,36.1682],[76.6012,36.1655],[76.6444,36.184],[76.6648,36.1581],[76.7037,36.1289],[76.7196,36.0832],[76.7968,36.0498],[76.7989,36.0166],[76.7697,36.0094],[76.7543,35.9827],[76.7228,35.9534],[76.779,35.8987],[76.7941,35.8628],[76.8118,35.8448],[76.8579,35.8312],[76.8949,35.7997],[76.9352,35.7841],[77.0207,35.7746],[77.0587,35.7843],[77.0791,35.797],[77.1031,35.7574],[77.1631,35.7421],[77.1753,35.7317],[77.221,35.7282],[77.2282,35.7125],[77.2678,35.7091],[77.2775,35.7204],[77.2855,35.7111],[77.3152,35.6991],[77.3276,35.7191],[77.3584,35.7177],[77.3708,35.6952],[77.3865,35.6898],[77.4016,35.6625],[77.4221,35.6616],[77.431,35.6546],[77.4379,35.6411],[77.4368,35.6222],[77.4271,35.6105],[77.4569,35.5936],[77.4656,35.5733],[77.4606,35.5477],[77.4866,35.532],[77.4724,35.5211],[77.4518,35.5266],[77.4353,35.5174],[77.3784,35.5503],[77.3454,35.5468],[77.3208,35.5326],[77.3425,35.5122],[77.3487,35.4937],[77.3663,35.4937],[77.3819,35.4765],[77.4138,35.4731],[77.4448,35.4613],[77.4809,35.4779],[77.4696,35.4562],[77.4131,35.4494],[77.3777,35.4529],[77.2762,35.5084],[77.1364,35.506],[77.095,35.5209],[77.0496,35.5616],[77.0192,35.5646],[76.9759,35.5587],[76.9101,35.5638],[76.8677,35.5853],[76.8325,35.6238],[76.7603,35.6273],[76.7373,35.6367],[76.696,35.6786],[76.6685,35.6954],[76.5958,35.7176],[76.5547,35.7393],[76.5313,35.7814],[76.5448,35.8642],[76.5403,35.879],[76.5074,35.8528],[76.4402,35.8419],[76.4101,35.8123],[76.3542,35.811],[76.3162,35.7901],[76.2596,35.7976],[76.1906,35.785],[76.1542,35.7901],[76.1195,35.8193],[76.0961,35.9336],[76.0765,35.9624],[76.0565,35.9718],[75.9793,35.9763],[75.9423,35.9904],[75.9084,36.0173],[75.8836,36.052],[75.8744,36.096],[75.8876,36.1281],[75.9569,36.1691],[75.9493,36.1893],[75.9524,36.2118],[75.9727,36.2323],[75.9928,36.2402],[75.961,36.2745],[75.9489,36.3],[75.9488,36.3441],[75.9668,36.4209],[75.9611,36.4442],[75.9648,36.4571],[75.9835,36.4653],[76.1137,36.4456]]]]}},{"type":"Feature","properties":{"id":"aksai-chin","label":"Aksai Chin (China-occupied)","region":"Ladakh","ut_post_2019":"Ladakh"},"geometry":{"type":"MultiPolygon","coordinates":[[[[77.9683,35.4825],[77.9649,35.496],[77.9313,35.5156],[77.9629,35.5635],[77.9776,35.5722],[77.996,35.5592],[78.0123,35.5712],[78.0224,35.5642],[78.0323,35.5723],[78.0279,35.5827],[78.0404,35.5868],[78.0679,35.5629],[78.0756,35.5519],[78.0725,35.5445],[78.0905,35.5334],[78.0998,35.5521],[78.1321,35.5387],[78.1572,35.5509],[78.1617,35.5929],[78.1813,35.6008],[78.1729,35.6167],[78.1974,35.6398],[78.198,35.6672],[78.2551,35.6456],[78.2593,35.6584],[78.2721,35.6689],[78.2675,35.711],[78.2767,35.7234],[78.3423,35.7199],[78.3708,35.7289],[78.4088,35.7307],[78.4183,35.7466],[78.4172,35.7624],[78.4405,35.7807],[78.4603,35.775],[78.4627,35.7644],[78.5054,35.7712],[78.5356,35.7635],[78.5617,35.7754],[78.5781,35.798],[78.6046,35.813],[78.6566,35.8221],[78.6735,35.8521],[78.6947,35.8497],[78.7218,35.863],[78.7503,35.8597],[78.7781,35.8657],[78.8045,35.8558],[78.8238,35.8558],[78.9399,35.8796],[78.9638,35.8925],[79.0038,35.8568],[79.0216,35.8487],[79.1325,35.8362],[79.157,35.8503],[79.194,35.8869],[79.1978,35.8986],[79.1881,35.9328],[79.2696,35.9274],[79.2944,35.9386],[79.308,35.9545],[79.3384,35.9635],[79.3362,35.9767],[79.3434,35.9879],[79.3888,35.9773],[79.4061,35.9134],[79.4221,35.8965],[79.4646,35.8901],[79.4523,35.8828],[79.475,35.8567],[79.5013,35.8465],[79.5173,35.8503],[79.5253,35.8658],[79.5392,35.8718],[79.5833,35.857],[79.5643,35.8298],[79.5719,35.8127],[79.5884,35.815],[79.5845,35.7997],[79.5925,35.7889],[79.6386,35.7777],[79.6294,35.7671],[79.6426,35.751],[79.6341,35.7416],[79.6451,35.7239],[79.6646,35.7185],[79.6703,35.7034],[79.6786,35.7002],[79.6794,35.6707],[79.6865,35.6636],[79.6982,35.6635],[79.7043,35.639],[79.7211,35.636],[79.734,35.6428],[79.7715,35.6257],[79.8168,35.627],[79.8393,35.6016],[79.8367,35.5863],[79.8457,35.5746],[79.8608,35.5767],[79.869,35.5983],[79.921,35.6047],[79.9246,35.6207],[79.938,35.621],[79.9542,35.6339],[79.9585,35.6295],[79.9546,35.6162],[79.9739,35.6055],[79.9989,35.6024],[80.0011,35.5925],[79.9953,35.5841],[79.9653,35.5747],[79.9663,35.5536],[79.9783,35.5488],[79.9823,35.5331],[79.9947,35.5231],[79.994,35.5098],[80.0069,35.4962],[80.0168,35.4658],[80.0349,35.4386],[80.0549,35.4234],[80.0723,35.4232],[80.088,35.4325],[80.081,35.4504],[80.0958,35.4584],[80.11,35.4784],[80.1271,35.4784],[80.1419,35.498],[80.1826,35.5088],[80.1662,35.5528],[80.2054,35.5752],[80.2249,35.5547],[80.2327,35.56],[80.25,35.5569],[80.2638,35.5683],[80.2768,35.5529],[80.2975,35.5561],[80.304,35.5451],[80.3022,35.534],[80.3171,35.5251],[80.3286,35.4726],[80.3235,35.4653],[80.2976,35.4608],[80.2811,35.4409],[80.2835,35.3879],[80.2709,35.3442],[80.2357,35.2766],[80.226,35.22],[80.1835,35.1667],[80.1779,35.1369],[80.1859,35.0632],[80.1748,35.0023],[80.1237,34.8934],[80.0731,34.8284],[80.067,34.7906],[80.0728,34.7461],[80.069,34.7148],[79.991,34.6923],[79.9722,34.6997],[79.9642,34.6876],[79.9446,34.6811],[79.9324,34.6919],[79.9175,34.6885],[79.9011,34.6963],[79.8607,34.6888],[79.8248,34.6611],[79.8165,34.6434],[79.8043,34.643],[79.7759,34.6276],[79.7726,34.6205],[79.793,34.5896],[79.771,34.5821],[79.759,34.566],[79.7585,34.5547],[79.775,34.552],[79.8103,34.5313],[79.794,34.4851],[79.7334,34.4783],[79.7138,34.4789],[79.7033,34.4862],[79.6943,34.4784],[79.673,34.4836],[79.662,34.4797],[79.6524,34.4884],[79.6089,34.492],[79.5933,34.5008],[79.5709,34.4867],[79.5085,34.4743],[79.5178,34.4587],[79.5092,34.4512],[79.5275,34.444],[79.5271,34.4202],[79.5376,34.4121],[79.5348,34.4008],[79.559,34.3716],[79.5628,34.3243],[79.5919,34.2828],[79.5857,34.2444],[79.5648,34.2178],[79.5501,34.2151],[79.5401,34.2055],[79.5122,34.2109],[79.5015,34.1948],[79.4906,34.1909],[79.4951,34.1807],[79.4913,34.1342],[79.4856,34.1256],[79.4701,34.1161],[79.4249,34.112],[79.4161,34.1001],[79.4212,34.079],[79.4144,34.0632],[79.4221,34.0447],[79.4045,34.0273],[79.4083,34.019],[79.3988,34.0271],[79.3555,34.0369],[79.306,34.043],[79.2744,34.0394],[79.2477,34.0513],[79.1981,34.0512],[79.1788,34.0721],[79.1712,34.0729],[79.1649,34.0666],[79.1516,34.0681],[79.1438,34.0352],[79.1311,34.0243],[79.0841,34.0219],[79.0148,34.0503],[78.9422,34.0249],[78.9026,34.0016],[78.8877,33.97],[78.9371,33.9126],[78.9652,33.8213],[78.9933,33.7946],[79.0004,33.7734],[79.0283,33.7537],[79.0102,33.7144],[79.0076,33.6933],[79.0221,33.6743],[79.064,33.6664],[79.0825,33.6493],[79.0909,33.6293],[79.0851,33.6195],[79.0448,33.6275],[78.9899,33.6112],[78.9224,33.6332],[78.9145,33.6279],[78.9171,33.6216],[78.9074,33.6205],[78.9053,33.6055],[78.8857,33.5762],[78.9098,33.5654],[78.9135,33.5546],[78.9314,33.4868],[78.9274,33.4406],[78.9319,33.4069],[78.9401,33.3959],[78.9366,33.3869],[78.91,33.4],[78.9022,33.4104],[78.8564,33.4162],[78.8371,33.4255],[78.8361,33.4382],[78.8118,33.4704],[78.8142,33.483],[78.7831,33.5071],[78.7325,33.569],[78.7417,33.5778],[78.741,33.6008],[78.7581,33.6234],[78.7176,33.6257],[78.7766,33.7445],[78.7633,33.7592],[78.7643,33.774],[78.7542,33.7842],[78.7654,33.8359],[78.7509,33.8844],[78.7615,33.8894],[78.7641,33.9099],[78.7279,33.9238],[78.7359,33.9439],[78.7423,34.0],[78.7267,34.0162],[78.7064,34.0176],[78.7015,34.0279],[78.686,34.0234],[78.6565,34.0318],[78.6544,34.0544],[78.6653,34.0693],[78.6577,34.0763],[78.6697,34.0919],[78.6823,34.0796],[78.6955,34.0839],[78.6927,34.0892],[78.7019,34.0943],[78.7443,34.0895],[78.7599,34.0994],[78.7605,34.1069],[78.7852,34.1202],[78.7947,34.1378],[78.8261,34.1247],[78.8337,34.1275],[78.8416,34.1422],[78.8587,34.1453],[78.8621,34.1656],[78.8726,34.1651],[78.8836,34.152],[78.9076,34.1416],[78.9089,34.1498],[78.9257,34.1544],[78.9284,34.1669],[78.9237,34.1725],[78.9438,34.225],[78.9616,34.2366],[78.9696,34.2803],[78.9853,34.2987],[78.9797,34.3127],[79.0285,34.3169],[79.0447,34.327],[78.9978,34.3541],[78.9716,34.3618],[78.9635,34.3717],[78.9645,34.3874],[78.9473,34.3894],[78.9324,34.3801],[78.9163,34.3873],[78.9083,34.3821],[78.8912,34.386],[78.8457,34.4179],[78.8201,34.4198],[78.8041,34.4365],[78.783,34.4426],[78.764,34.4398],[78.7385,34.4565],[78.757,34.4658],[78.7549,34.4741],[78.762,34.4812],[78.7179,34.5007],[78.7097,34.5259],[78.6854,34.5268],[78.6453,34.5422],[78.6129,34.5397],[78.5915,34.5281],[78.5932,34.5162],[78.5799,34.5044],[78.5595,34.5118],[78.5608,34.556],[78.5517,34.5622],[78.5519,34.5715],[78.5317,34.5775],[78.5135,34.5736],[78.4982,34.5841],[78.4835,34.5801],[78.475,34.5682],[78.4592,34.5689],[78.446,34.5434],[78.4355,34.5419],[78.4264,34.5607],[78.4302,34.5878],[78.4219,34.5948],[78.3832,34.6071],[78.3371,34.6035],[78.3279,34.6119],[78.2901,34.6151],[78.273,34.6298],[78.262,34.6609],[78.2784,34.676],[78.2759,34.696],[78.2411,34.7146],[78.2107,34.7191],[78.2022,34.7354],[78.2123,34.7676],[78.2269,34.7723],[78.2324,34.7987],[78.2255,34.8112],[78.2346,34.8392],[78.2282,34.8526],[78.2372,34.8698],[78.2358,34.8808],[78.2253,34.8891],[78.2032,34.8913],[78.2075,34.9031],[78.1737,34.9373],[78.2023,34.9548],[78.2015,34.9731],[78.1765,34.9879],[78.158,34.9887],[78.1148,35.036],[78.1377,35.0512],[78.1336,35.061],[78.1464,35.0705],[78.1324,35.0883],[78.1317,35.0997],[78.1126,35.1069],[78.1119,35.1165],[78.1021,35.1202],[78.1041,35.1665],[78.0873,35.1667],[78.0838,35.1764],[78.0551,35.1782],[78.0219,35.2163],[78.0157,35.2159],[78.0032,35.2394],[78.0227,35.3583],[78.054,35.3993],[78.101,35.4303],[78.1072,35.4392],[78.1097,35.4685],[78.1209,35.4796],[78.0861,35.4859],[78.0761,35.4956],[78.066,35.4867],[78.0398,35.4887],[78.0334,35.4697],[78.025,35.4682],[78.0094,35.4817],[78.0006,35.4942],[77.9947,35.4897],[77.972,35.4974],[77.9683,35.4825]],[[78.0148,35.4778],[78.0148,35.4778],[78.0149,35.4777],[78.0148,35.4778]]]]}}]}