{"type":"FeatureCollection","features":[{"type":"Feature","properties":{"name":"Thang","rank":2},"geometry":{"type":"Point","coordinates":[76.7934,34.9274]}},{"type":"Feature","properties":{"name":"Poonch","rank":1},"geometry":{"type":"Point","coordinates":[74.0921,33.7697]}},{"type":"Feature","properties":{"name":"Uri","rank":2},"geometry":{"type":"Point","coordinates":[74.0477,34.0871]}},{"type":"Feature","properties":{"name":"Udhampur","rank":1},"geometry":{"type":"Point","coordinates":[75.1357,32.9243]}},{"type":"Feature","properties":{"name":"Tsrar Sharif","rank":2},"geometry":{"type":"Point","coordinates":[74.7652,33.8632]}},{"type":"Feature","properties":{"name":"Tral","rank":2},"geometry":{"type":"Point","coordinates":[75.1151,33.9277]}},{"type":"Feature","properties":{"name":"Thanna Mandi","rank":2},"geometry":{"type":"Point","coordinates":[74.3803,33.5423]}},{"type":"Feature","properties":{"name":"Sumbal","rank":2},"geometry":{"type":"Point","coordinates":[74.6483,34.2302]}},{"type":"Feature","properties":{"name":"Srinagar","rank":1},"geometry":{"type":"Point","coordinates":[74.803,34.0884]}},{"type":"Feature","properties":{"name":"Sopur","rank":2},"geometry":{"type":"Point","coordinates":[74.4722,34.2879]}},{"type":"Feature","properties":{"name":"Shopian","rank":2},"geometry":{"type":"Point","coordinates":[74.8341,33.7172]}},{"type":"Feature","properties":{"name":"Samba","rank":2},"geometry":{"type":"Point","coordinates":[75.1249,32.5611]}},{"type":"Feature","properties":{"name":"Reasi","rank":2},"geometry":{"type":"Point","coordinates":[74.8324,33.0812]}},{"type":"Feature","properties":{"name":"Ramnagar","rank":2},"geometry":{"type":"Point","coordinates":[75.3112,32.8073]}},{"type":"Feature","properties":{"name":"Ramgarh","rank":2},"geometry":{"type":"Point","coordinates":[74.2231,33.4035]}},{"type":"Feature","properties":{"name":"Ramban","rank":2},"geometry":{"type":"Point","coordinates":[75.2395,33.241]}},{"type":"Feature","properties":{"name":"Rajouri","rank":1},"geometry":{"type":"Point","coordinates":[74.3092,33.3753]}},{"type":"Feature","properties":{"name":"Qazigund","rank":2},"geometry":{"type":"Point","coordinates":[75.1426,33.6383]}},{"type":"Feature","properties":{"name":"Pulwama","rank":1},"geometry":{"type":"Point","coordinates":[74.8996,33.874]}},{"type":"Feature","properties":{"name":"Pattan","rank":2},"geometry":{"type":"Point","coordinates":[74.5555,34.1611]}},{"type":"Feature","properties":{"name":"Parol","rank":2},"geometry":{"type":"Point","coordinates":[75.4344,32.346]}},{"type":"Feature","properties":{"name":"Pahalgam","rank":2},"geometry":{"type":"Point","coordinates":[75.319,34.0142]}},{"type":"Feature","properties":{"name":"Padam","rank":2},"geometry":{"type":"Point","coordinates":[76.8849,33.4666]}},{"type":"Feature","properties":{"name":"Nawanshahr","rank":2},"geometry":{"type":"Point","coordinates":[74.5277,32.7651]}},{"type":"Feature","properties":{"name":"Magam","rank":2},"geometry":{"type":"Point","coordinates":[74.5902,34.0921]}},{"type":"Feature","properties":{"name":"Leh","rank":1},"geometry":{"type":"Point","coordinates":[77.584,34.165]}},{"type":"Feature","properties":{"name":"Kulgam","rank":2},"geometry":{"type":"Point","coordinates":[75.0187,33.6446]}},{"type":"Feature","properties":{"name":"Kud","rank":2},"geometry":{"type":"Point","coordinates":[75.2873,33.0725]}},{"type":"Feature","properties":{"name":"Kishtwar","rank":1},"geometry":{"type":"Point","coordinates":[75.7673,33.3135]}},{"type":"Feature","properties":{"name":"Khaur","rank":2},"geometry":{"type":"Point","coordinates":[74.8092,32.6027]}},{"type":"Feature","properties":{"name":"Katra","rank":2},"geometry":{"type":"Point","coordinates":[74.932,32.9917]}},{"type":"Feature","properties":{"name":"Kathua","rank":1},"geometry":{"type":"Point","coordinates":[75.5246,32.3707]}},{"type":"Feature","properties":{"name":"Kargil","rank":1},"geometry":{"type":"Point","coordinates":[76.1262,34.5577]}},{"type":"Feature","properties":{"name":"Jammu","rank":1},"geometry":{"type":"Point","coordinates":[74.8691,32.7357]}},{"type":"Feature","properties":{"name":"Hiranagar","rank":2},"geometry":{"type":"Point","coordinates":[75.2931,32.4546]}},{"type":"Feature","properties":{"name":"Hajan","rank":2},"geometry":{"type":"Point","coordinates":[74.6168,34.2989]}},{"type":"Feature","properties":{"name":"Ganderbal","rank":2},"geometry":{"type":"Point","coordinates":[74.7783,34.2299]}},{"type":"Feature","properties":{"name":"Doda","rank":1},"geometry":{"type":"Point","coordinates":[75.5461,33.1487]}},{"type":"Feature","properties":{"name":"Bishnah","rank":2},"geometry":{"type":"Point","coordinates":[74.8556,32.6106]}},{"type":"Feature","properties":{"name":"Bijbiara","rank":2},"geometry":{"type":"Point","coordinates":[75.1068,33.794]}},{"type":"Feature","properties":{"name":"Bhadarwah","rank":2},"geometry":{"type":"Point","coordinates":[75.7172,32.9794]}},{"type":"Feature","properties":{"name":"Batoti","rank":2},"geometry":{"type":"Point","coordinates":[75.3089,33.1183]}},{"type":"Feature","properties":{"name":"Baramulla","rank":1},"geometry":{"type":"Point","coordinates":[74.3428,34.209]}},{"type":"Feature","properties":{"name":"Banihal","rank":2},"geometry":{"type":"Point","coordinates":[75.2,33.4167]}},{"type":"Feature","properties":{"name":"Bandipora","rank":2},"geometry":{"type":"Point","coordinates":[74.6431,34.4173]}},{"type":"Feature","properties":{"name":"Awantipur","rank":2},"geometry":{"type":"Point","coordinates":[75.0152,33.9198]}},{"type":"Feature","properties":{"name":"Arnia","rank":2},"geometry":{"type":"Point","coordinates":[74.7985,32.5209]}},{"type":"Feature","properties":{"name":"Anantnag","rank":1},"geometry":{"type":"Point","coordinates":[75.1517,33.7299]}},{"type":"Feature","properties":{"name":"Akhnur","rank":2},"geometry":{"type":"Point","coordinates":[74.7333,32.8667]}},{"type":"Feature","properties":{"name":"Soyibug","rank":2},"geometry":{"type":"Point","coordinates":[74.7087,34.0805]}},{"type":"Feature","properties":{"name":"Jaurian","rank":2},"geometry":{"type":"Point","coordinates":[74.5764,32.8319]}},{"type":"Feature","properties":{"name":"Gho Manhasan","rank":2},"geometry":{"type":"Point","coordinates":[74.9486,32.5556]}},{"type":"Feature","properties":{"name":"Kupwara","rank":1},"geometry":{"type":"Point","coordinates":[74.2642,34.0306]}},{"type":"Feature","properties":{"name":"Rawalakot","rank":2},"geometry":{"type":"Point","coordinates":[73.7604,33.8578]}},{"type":"Feature","properties":{"name":"Skardu","rank":1},"geometry":{"type":"Point","coordinates":[75.6333,35.2885]}},{"type":"Feature","properties":{"name":"Palandri","rank":2},"geometry":{"type":"Point","coordinates":[73.6874,33.7177]}},{"type":"Feature","properties":{"name":"Mirpur","rank":1},"geometry":{"type":"Point","coordinates":[73.7674,33.1418]}},{"type":"Feature","properties":{"name":"Muzaffarabad","rank":1},"geometry":{"type":"Point","coordinates":[73.4708,34.37]}},{"type":"Feature","properties":{"name":"Kotli","rank":2},"geometry":{"type":"Point","coordinates":[73.9167,33.5167]}},{"type":"Feature","properties":{"name":"Khapalu","rank":2},"geometry":{"type":"Point","coordinates":[76.344,35.1527]}},{"type":"Feature","properties":{"name":"Gilgit","rank":1},"geometry":{"type":"Point","coordinates":[74.3124,35.9187]}},{"type":"Feature","properties":{"name":"Gakuch","rank":2},"geometry":{"type":"Point","coordinates":[73.7638,36.1768]}},{"type":"Feature","properties":{"name":"Chilas","rank":2},"geometry":{"type":"Point","coordinates":[74.1035,35.4117]}},{"type":"Feature","properties":{"name":"Bhimber","rank":2},"geometry":{"type":"Point","coordinates":[74.0793,32.9757]}},{"type":"Feature","properties":{"name":"Bagh","rank":2},"geometry":{"type":"Point","coordinates":[73.7761,33.9811]}},{"type":"Feature","properties":{"name":"Aliabad","rank":2},"geometry":{"type":"Point","coordinates":[74.6154,36.307]}},{"type":"Feature","properties":{"name":"Idgah","rank":2},"geometry":{"type":"Point","coordinates":[74.8561,35.3447]}},{"type":"Feature","properties":{"name":"Barishal","rank":2},"geometry":{"type":"Point","coordinates":[74.6786,36.3163]}},{"type":"Feature","properties":{"name":"Athmuqam","rank":2},"geometry":{"type":"Point","coordinates":[73.8972,34.5717]}},{"type":"Feature","properties":{"name":"Hattian Bala","rank":2},"geometry":{"type":"Point","coordinates":[73.7432,34.1691]}}]}