{"type":"FeatureCollection","features":[{"type":"Feature","properties":{"id":"pojk","label":"Pakistan-occupied Jammu & Kashmir (PoJK)"},"geometry":{"type":"Point","coordinates":[73.75,33.75]}},{"type":"Feature","properties":{"id":"gilgit-baltistan","label":"Gilgit-Baltistan (Pakistan-occupied)"},"geometry":{"type":"Point","coordinates":[74.6,35.9]}},{"type":"Feature","properties":{"id":"shaksgam","label":"Shaksgam Valley (illegally ceded by Pakistan to China, 1963)"},"geometry":{"type":"Point","coordinates":[76.55,36.05]}},{"type":"Feature","properties":{"id":"aksai-chin","label":"Aksai Chin (China-occupied)"},"geometry":{"type":"Point","coordinates":[79.3,35.1]}},{"type":"Feature","properties":{"id":"ladakh","label":"Ladakh"},"geometry":{"type":"Point","coordinates":[77.6,34.15]}},{"type":"Feature","properties":{"id":"jk","label":"Jammu & Kashmir"},"geometry":{"type":"Point","coordinates":[75.0,33.55]}}]}